<?xml version='1.0' encoding='UTF-8'?>
<osm generator="erjiang/kokomo-addresses" upload="true" version="0.6"><node id="-748" lat="40.486254121291466" lon="-86.12534700449508" visible="true"><tag k="addr:housenumber" v="601" /><tag k="addr:street" v="East Sycamore Street" /></node><node id="-749" lat="40.491714190573326" lon="-86.12137372072112" visible="true"><tag k="addr:housenumber" v="915" /><tag k="addr:street" v="East Monroe Street" /></node><node id="-750" lat="40.48509032402147" lon="-86.12326308408613" visible="true"><tag k="addr:housenumber" v="218" /><tag k="addr:street" v="South Jay Street" /></node><node id="-751" lat="40.49081819184736" lon="-86.12297796521746" visible="true"><tag k="addr:housenumber" v="801" /><tag k="addr:street" v="East Jefferson Street" /></node><node id="-752" lat="40.490084289655414" lon="-86.12504199143173" visible="true"><tag k="addr:housenumber" v="611" /><tag k="addr:street" v="East Jackson Street" /></node><node id="-753" lat="40.485361813572965" lon="-86.11886077314912" visible="true"><tag k="addr:housenumber" v="1101" /><tag k="addr:street" v="East Sycamore Road" /></node><node id="-754" lat="40.49510828003219" lon="-86.11763954773544" visible="true"><tag k="addr:housenumber" v="1054" /><tag k="addr:street" v="East Havens Street" /></node><node id="-755" lat="40.487205032996066" lon="-86.1236296121215" visible="true"><tag k="addr:housenumber" v="715" /><tag k="addr:street" v="East Walnut Street" /></node><node id="-756" lat="40.48880261809233" lon="-86.12398294635429" visible="true"><tag k="addr:housenumber" v="308" /><tag k="addr:street" v="North Purdum Street" /></node><node id="-757" lat="40.49235349480214" lon="-86.11403216876212" visible="true"><tag k="addr:housenumber" v="1414" /><tag k="addr:street" v="East Monroe Street" /></node><node id="-758" lat="40.491668315553056" lon="-86.12710225657796" visible="true"><tag k="addr:housenumber" v="419" /><tag k="addr:street" v="East Monroe Street" /></node><node id="-759" lat="40.49076098434071" lon="-86.11841256086858" visible="true"><tag k="addr:housenumber" v="1117" /><tag k="addr:street" v="East Jefferson Street" /></node><node id="-760" lat="40.48873053802412" lon="-86.12245023085225" visible="true"><tag k="addr:housenumber" v="822" /><tag k="addr:street" v="East Mulberry Street" /></node><node id="-762" lat="40.49510941814542" lon="-86.12653157721206" visible="true"><tag k="addr:housenumber" v="1018" /><tag k="addr:street" v="North Apperson Way" /></node><node id="-763" lat="40.4875005925861" lon="-86.11375885633792" visible="true"><tag k="addr:housenumber" v="1265" /><tag k="addr:street" v="East Sycamore Street" /></node><node id="-764" lat="40.49264696699485" lon="-86.11611644325686" visible="true"><tag k="addr:housenumber" v="1228" /><tag k="addr:street" v="East Jefferson Street" /></node><node id="-765" lat="40.48871196128426" lon="-86.12343589457892" visible="true"><tag k="addr:housenumber" v="714" /><tag k="addr:street" v="East Mulberry Street" /></node><node id="-766" lat="40.48768651399169" lon="-86.12636253856337" visible="true"><tag k="addr:housenumber" v="510" /><tag k="addr:street" v="East Walnut Street" /></node><node id="-767" lat="40.48919664562473" lon="-86.11867169615537" visible="true"><tag k="addr:housenumber" v="1111" /><tag k="addr:street" v="East Taylor Street" /></node><node id="-771" lat="40.488208853432944" lon="-86.11632436809673" visible="true"><tag k="addr:housenumber" v="1221" /><tag k="addr:street" v="East Mulberry Street" /></node><node id="-772" lat="40.484194314360956" lon="-86.12366734258029" visible="true"><tag k="addr:housenumber" v="304" /><tag k="addr:street" v="South Purdum Street" /></node><node id="-773" lat="40.494605826964786" lon="-86.12040767045266" visible="true"><tag k="addr:housenumber" v="937" /><tag k="addr:street" v="East Havens Street" /></node><node id="-774" lat="40.49179079119858" lon="-86.12618931067574" visible="true"><tag k="addr:housenumber" v="511" /><tag k="addr:street" v="East Monroe Street" /></node><node id="-775" lat="40.49182739162723" lon="-86.12287827016938" visible="true"><tag k="addr:housenumber" v="624" /><tag k="addr:street" v="North Jay Street" /></node><node id="-776" lat="40.48718266399803" lon="-86.12545474445156" visible="true"><tag k="addr:housenumber" v="527" /><tag k="addr:street" v="East Walnut Street" /></node><node id="-779" lat="40.489072881496035" lon="-86.1258564407169" visible="true"><tag k="addr:housenumber" v="523" /><tag k="addr:street" v="East Taylor Street" /></node><node id="-781" lat="40.48822760887704" lon="-86.12292642375114" visible="true"><tag k="addr:housenumber" v="805" /><tag k="addr:street" v="East Mulberry Street" /></node><node id="-783" lat="40.48881740657" lon="-86.12045043888115" visible="true"><tag k="addr:housenumber" v="934" /><tag k="addr:street" v="East Mulberry Street" /></node><node id="-784" lat="40.49423742642516" lon="-86.12467751507049" visible="true"><tag k="addr:housenumber" v="919" /><tag k="addr:street" v="North Purdum Street" /></node><node id="-785" lat="40.48693925941471" lon="-86.11416554722132" visible="true"><tag k="addr:housenumber" v="114" /><tag k="addr:street" v="South Elizabeth Street" /></node><node id="-786" lat="40.491291175333416" lon="-86.12100194648565" visible="true"><tag k="addr:housenumber" v="926" /><tag k="addr:street" v="East Jefferson Street" /></node><node id="-787" lat="40.492247802410915" lon="-86.11073996579523" visible="true"><tag k="addr:housenumber" v="1506" /><tag k="addr:street" v="East Jefferson Street" /></node><node id="-788" lat="40.48972405089453" lon="-86.12035843092882" visible="true"><tag k="addr:housenumber" v="940" /><tag k="addr:street" v="East Taylor St &amp; 942" /></node><node id="-789" lat="40.4946777881289" lon="-86.1260006985333" visible="true"><tag k="addr:housenumber" v="1005" /><tag k="addr:street" v="North Bell Street" /></node><node id="-790" lat="40.48771767868234" lon="-86.12521654125986" visible="true"><tag k="addr:housenumber" v="606" /><tag k="addr:street" v="East Walnut Street" /></node><node id="-791" lat="40.494209272384204" lon="-86.12091610041844" visible="true"><tag k="addr:housenumber" v="926" /><tag k="addr:street" v="East Richmond Street" /></node><node id="-792" lat="40.48623043166466" lon="-86.1207628280168" visible="true"><tag k="addr:housenumber" v="1015" /><tag k="addr:street" v="East Sycamore Street" /></node><node id="-793" lat="40.49129277837101" lon="-86.12654091844159" visible="true"><tag k="addr:housenumber" v="502" /><tag k="addr:street" v="East Jefferson Street" /></node><node id="-794" lat="40.49048802526138" lon="-86.11251075768855" visible="true"><tag k="addr:housenumber" v="416" /><tag k="addr:street" v="North Calumet Street" /></node><node id="-795" lat="40.4905177730448" lon="-86.12563270201939" visible="true"><tag k="addr:housenumber" v="528" /><tag k="addr:street" v="East Jackson Street" /></node><node id="-796" lat="40.489517392933394" lon="-86.10910564794352" visible="true"><tag k="addr:housenumber" v="1630" /><tag k="addr:street" v="East Sycamore Street" /></node><node id="-798" lat="40.49047916180732" lon="-86.11640657465412" visible="true"><tag k="addr:housenumber" v="1223" /><tag k="addr:street" v="East Jefferson Street" /></node><node id="-799" lat="40.4867335582842" lon="-86.1251899445535" visible="true"><tag k="addr:housenumber" v="606" /><tag k="addr:street" v="East Sycamore Street" /></node><node id="-800" lat="40.48550944766732" lon="-86.11176541945744" visible="true"><tag k="addr:housenumber" v="210" /><tag k="addr:street" v="South Cooper Street" /></node><node id="-802" lat="40.49165656510925" lon="-86.12530443743373" visible="true"><tag k="addr:housenumber" v="620" /><tag k="addr:street" v="North Bell Street" /></node><node id="-803" lat="40.48886827536607" lon="-86.11778470901929" visible="true"><tag k="addr:housenumber" v="1130" /><tag k="addr:street" v="East Mulberry Street" /></node><node id="-804" lat="40.489247169025234" lon="-86.11442585662314" visible="true"><tag k="addr:housenumber" v="1329" /><tag k="addr:street" v="East Taylor Street" /></node><node id="-805" lat="40.487848608732754" lon="-86.12399124620507" visible="true"><tag k="addr:housenumber" v="212" /><tag k="addr:street" v="North Purdum Street" /></node><node id="-806" lat="40.48549378168413" lon="-86.12209622537888" visible="true"><tag k="addr:housenumber" v="907" /><tag k="addr:street" v="East Superior Street" /></node><node id="-807" lat="40.48874481871822" lon="-86.11863909413267" visible="true"><tag k="addr:housenumber" v="1110" /><tag k="addr:street" v="East Mulberry Street" /></node><node id="-809" lat="40.49462056250015" lon="-86.11925031515233" visible="true"><tag k="addr:housenumber" v="1009" /><tag k="addr:street" v="East Havens Street" /></node><node id="-811" lat="40.490818122028635" lon="-86.11911031135851" visible="true"><tag k="addr:housenumber" v="1101" /><tag k="addr:street" v="East Jefferson Street" /></node><node id="-812" lat="40.485179196341136" lon="-86.11176731823613" visible="true"><tag k="addr:housenumber" v="218" /><tag k="addr:street" v="South Cooper Street" /></node><node id="-813" lat="40.48514550407159" lon="-86.12378914018059" visible="true"><tag k="addr:housenumber" v="215" /><tag k="addr:street" v="South Jay Street" /></node><node id="-814" lat="40.49468585400251" lon="-86.12531060923538" visible="true"><tag k="addr:housenumber" v="1010" /><tag k="addr:street" v="North Bell Street" /></node><node id="-815" lat="40.49084752282113" lon="-86.12484744620261" visible="true"><tag k="addr:housenumber" v="615" /><tag k="addr:street" v="East Jefferson Street" /></node><node id="-817" lat="40.48807119872049" lon="-86.1215875477701" visible="true"><tag k="addr:housenumber" v="915" /><tag k="addr:street" v="East Mulberry Street" /></node><node id="-819" lat="40.48875151705999" lon="-86.11683843947114" visible="true"><tag k="addr:housenumber" v="1212" /><tag k="addr:street" v="East Mulberry Street" /></node><node id="-820" lat="40.48577230181784" lon="-86.12539540342141" visible="true"><tag k="addr:housenumber" v="600" /><tag k="addr:street" v="East Superior Street" /></node><node id="-821" lat="40.4929553689822" lon="-86.12479005405962" visible="true"><tag k="addr:housenumber" v="803" /><tag k="addr:street" v="North Purdum Street" /></node><node id="-824" lat="40.49164869096236" lon="-86.12600846501834" visible="true"><tag k="addr:housenumber" v="619" /><tag k="addr:street" v="North Bell Street" /></node><node id="-825" lat="40.49451670536699" lon="-86.10850051235741" visible="true"><tag k="addr:housenumber" v="1735" /><tag k="addr:street" v="East Havens Street" /></node><node id="-826" lat="40.48821235779251" lon="-86.11958111307626" visible="true"><tag k="addr:housenumber" v="1015" /><tag k="addr:street" v="East Mulberry Street" /></node><node id="-827" lat="40.49505985715342" lon="-86.12141933520698" visible="true"><tag k="addr:housenumber" v="914" /><tag k="addr:street" v="East Havens Street" /></node><node id="-828" lat="40.48922412928453" lon="-86.11589257973908" visible="true"><tag k="addr:housenumber" v="1237" /><tag k="addr:street" v="East Taylor Street" /></node><node id="-829" lat="40.48784956111172" lon="-86.12006442920776" visible="true"><tag k="addr:housenumber" v="1004" /><tag k="addr:street" v="East Walnut Street" /></node><node id="-830" lat="40.492270561103496" lon="-86.12063385702349" visible="true"><tag k="addr:housenumber" v="932" /><tag k="addr:street" v="East Monroe Street" /></node><node id="-833" lat="40.490356404731415" lon="-86.11251092925265" visible="true"><tag k="addr:housenumber" v="416" /><tag k="addr:street" v="North Calumet Street" /></node><node id="-835" lat="40.48416161861652" lon="-86.11169960780244" visible="true"><tag k="addr:housenumber" v="1520" /><tag k="addr:street" v="East Carter Street" /></node><node id="-836" lat="40.495123731073306" lon="-86.12530941997747" visible="true"><tag k="addr:housenumber" v="1020" /><tag k="addr:street" v="North Bell Street" /></node><node id="-838" lat="40.48872655362154" lon="-86.11475069353936" visible="true"><tag k="addr:housenumber" v="1326" /><tag k="addr:street" v="East Mulberry Street" /></node><node id="-839" lat="40.4872421068333" lon="-86.12290963231163" visible="true"><tag k="addr:housenumber" v="805" /><tag k="addr:street" v="East Walnut Street" /></node><node id="-840" lat="40.485148785240355" lon="-86.12186240998426" visible="true"><tag k="addr:housenumber" v="900" /><tag k="addr:street" v="East Maple Street" /></node><node id="-841" lat="40.4896855846752" lon="-86.12240157669085" visible="true"><tag k="addr:housenumber" v="816" /><tag k="addr:street" v="East Taylor Street" /></node><node id="-842" lat="40.488258437708296" lon="-86.12408085254856" visible="true"><tag k="addr:housenumber" v="701" /><tag k="addr:street" v="East Mulberry Street" /></node><node id="-843" lat="40.4868677376544" lon="-86.1223600825803" visible="true"><tag k="addr:housenumber" v="820" /><tag k="addr:street" v="East Sycamore Street" /></node><node id="-845" lat="40.488041173642586" lon="-86.11480685692166" visible="true"><tag k="addr:housenumber" v="1242" /><tag k="addr:street" v="East Sycamore Street" /></node><node id="-846" lat="40.4863889584153" lon="-86.12111387834679" visible="true"><tag k="addr:housenumber" v="1001" /><tag k="addr:street" v="East Sycamore Street" /></node><node id="-847" lat="40.49018114863127" lon="-86.12335960476409" visible="true"><tag k="addr:housenumber" v="421" /><tag k="addr:street" v="North Jay Street" /></node><node id="-848" lat="40.486032416902646" lon="-86.12261955150042" visible="true"><tag k="addr:housenumber" v="113" /><tag k="addr:street" v="South Locke Street" /></node><node id="-849" lat="40.48974375083292" lon="-86.11545339515311" visible="true"><tag k="addr:housenumber" v="1302" /><tag k="addr:street" v="East Taylor Street" /></node><node id="-851" lat="40.49137562934172" lon="-86.11567648237853" visible="true"><tag k="addr:housenumber" v="1240" /><tag k="addr:street" v="East Jefferson Street" /></node><node id="-852" lat="40.49218072467891" lon="-86.12642020646595" visible="true"><tag k="addr:housenumber" v="508" /><tag k="addr:street" v="East Monroe Street" /></node><node id="-853" lat="40.489211410417155" lon="-86.12060894638314" visible="true"><tag k="addr:housenumber" v="937" /><tag k="addr:street" v="East Taylor Street" /></node><node id="-854" lat="40.48783788436985" lon="-86.1182438722945" visible="true"><tag k="addr:housenumber" v="1118" /><tag k="addr:street" v="East Walnut Street" /></node><node id="-855" lat="40.48550294471396" lon="-86.11242357485888" visible="true"><tag k="addr:housenumber" v="211" /><tag k="addr:street" v="South Cooper Street" /></node><node id="-856" lat="40.491217161024174" lon="-86.12518885760457" visible="true"><tag k="addr:housenumber" v="608" /><tag k="addr:street" v="East Jefferson Street" /></node><node id="-857" lat="40.48786617625535" lon="-86.12180047333283" visible="true"><tag k="addr:housenumber" v="902" /><tag k="addr:street" v="East Walnut Street" /></node><node id="-858" lat="40.491735001569054" lon="-86.11950947977644" visible="true"><tag k="addr:housenumber" v="1021" /><tag k="addr:street" v="East Monroe Street" /></node><node id="-860" lat="40.49058151202276" lon="-86.12463590443664" visible="true"><tag k="addr:housenumber" v="618" /><tag k="addr:street" v="East Jackson Street" /></node><node id="-862" lat="40.487786867837045" lon="-86.12257264280635" visible="true"><tag k="addr:housenumber" v="814" /><tag k="addr:street" v="East Walnut Street" /></node><node id="-864" lat="40.488728824640205" lon="-86.1194503008268" visible="true"><tag k="addr:housenumber" v="1020" /><tag k="addr:street" v="East Mulberry Street" /></node><node id="-867" lat="40.493759015450195" lon="-86.11959197589871" visible="true"><tag k="addr:housenumber" v="1001" /><tag k="addr:street" v="East Richmond Street" /></node><node id="-868" lat="40.49459505522544" lon="-86.12125231304533" visible="true"><tag k="addr:housenumber" v="917" /><tag k="addr:street" v="East Havens Street" /></node><node id="-870" lat="40.49090358610781" lon="-86.12122630566618" visible="true"><tag k="addr:housenumber" v="917" /><tag k="addr:street" v="East Jefferson Street" /></node><node id="-871" lat="40.489166960509024" lon="-86.1241304154388" visible="true"><tag k="addr:housenumber" v="701" /><tag k="addr:street" v="East Taylor Street" /></node><node id="-873" lat="40.49173937643597" lon="-86.11911434154494" visible="true"><tag k="addr:housenumber" v="614" /><tag k="addr:street" v="North Delphos Street" /></node><node id="-874" lat="40.49131423011341" lon="-86.11892057292074" visible="true"><tag k="addr:housenumber" v="1106" /><tag k="addr:street" v="East Jefferson Street" /></node><node id="-875" lat="40.49021759326142" lon="-86.11301225519667" visible="true"><tag k="addr:housenumber" v="418" /><tag k="addr:street" v="North Calumet Street" /></node><node id="-877" lat="40.49088984751574" lon="-86.11349762059868" visible="true"><tag k="addr:housenumber" v="1323" /><tag k="addr:street" v="East Jefferson Street" /></node><node id="-879" lat="40.49077820650951" lon="-86.12624560932738" visible="true"><tag k="addr:housenumber" v="513" /><tag k="addr:street" v="East Jefferson Street" /></node><node id="-881" lat="40.488723481594974" lon="-86.11496244919738" visible="true"><tag k="addr:housenumber" v="1306" /><tag k="addr:street" v="East Mulberry Street" /></node><node id="-882" lat="40.4942221313804" lon="-86.1199025956778" visible="true"><tag k="addr:housenumber" v="952" /><tag k="addr:street" v="East Richmond Street" /></node><node id="-883" lat="40.488217738532946" lon="-86.11569113519381" visible="true"><tag k="addr:housenumber" v="1237" /><tag k="addr:street" v="East Mulberry Street" /></node><node id="-884" lat="40.48742090771918" lon="-86.11892995793787" visible="true"><tag k="addr:housenumber" v="1105" /><tag k="addr:street" v="East Walnut Street" /></node><node id="-885" lat="40.49421192478945" lon="-86.1265337734552" visible="true"><tag k="addr:housenumber" v="920" /><tag k="addr:street" v="North Apperson Way" /></node><node id="-886" lat="40.492266111414324" lon="-86.12102924943231" visible="true"><tag k="addr:housenumber" v="926" /><tag k="addr:street" v="East Monroe Street" /></node><node id="-887" lat="40.49408065741364" lon="-86.12531225922453" visible="true"><tag k="addr:housenumber" v="912" /><tag k="addr:street" v="North Bell Street" /></node><node id="-890" lat="40.48697787537404" lon="-86.12057162590465" visible="true"><tag k="addr:housenumber" v="932" /><tag k="addr:street" v="East Sycamore Street" /></node><node id="-891" lat="40.492485607882294" lon="-86.124095137533" visible="true"><tag k="addr:housenumber" v="710" /><tag k="addr:street" v="North Purdum Street" /></node><node id="-894" lat="40.48483808877273" lon="-86.11371790871183" visible="true"><tag k="addr:housenumber" v="303" /><tag k="addr:street" v="South Calumet Street" /></node><node id="-895" lat="40.490783423274834" lon="-86.12585508495621" visible="true"><tag k="addr:housenumber" v="525" /><tag k="addr:street" v="East Jefferson Street" /></node><node id="-896" lat="40.493793338723044" lon="-86.12710863807123" visible="true"><tag k="addr:housenumber" v="901" /><tag k="addr:street" v="North Apperson Way" /></node><node id="-897" lat="40.491855444728444" lon="-86.11218322606213" visible="true"><tag k="addr:housenumber" v="636" /><tag k="addr:street" v="North Cooper Street" /></node><node id="-898" lat="40.488609993504994" lon="-86.12372927324571" visible="true"><tag k="addr:housenumber" v="712" /><tag k="addr:street" v="East Mulberry Street" /></node><node id="-899" lat="40.4900759088993" lon="-86.12394242417521" visible="true"><tag k="addr:housenumber" v="707" /><tag k="addr:street" v="East Jackson Street" /></node><node id="-900" lat="40.48837255449211" lon="-86.11270287062628" visible="true"><tag k="addr:housenumber" v="1504" /><tag k="addr:street" v="East Sycamore Street" /></node><node id="-901" lat="40.48875681181545" lon="-86.12120490015793" visible="true"><tag k="addr:housenumber" v="924" /><tag k="addr:street" v="East Mulberry Street" /></node><node id="-902" lat="40.49369267598039" lon="-86.12478237651129" visible="true"><tag k="addr:housenumber" v="901" /><tag k="addr:street" v="North Purdum Street" /></node><node id="-906" lat="40.48828422250985" lon="-86.11410138745558" visible="true"><tag k="addr:housenumber" v="1409" /><tag k="addr:street" v="East Mulberry Street" /></node><node id="-907" lat="40.491539896167716" lon="-86.12287936125733" visible="true"><tag k="addr:housenumber" v="616" /><tag k="addr:street" v="North Jay Street" /></node><node id="-908" lat="40.492457988596556" lon="-86.12653806883102" visible="true"><tag k="addr:housenumber" v="712" /><tag k="addr:street" v="North Apperson Way" /></node><node id="-909" lat="40.48510353570998" lon="-86.12290990894017" visible="true"><tag k="addr:housenumber" v="808" /><tag k="addr:street" v="East Maple Street" /></node><node id="-910" lat="40.48971180785917" lon="-86.12129460978711" visible="true"><tag k="addr:housenumber" v="914" /><tag k="addr:street" v="East Taylor Street" /></node><node id="-911" lat="40.49419856586037" lon="-86.12176066647855" visible="true"><tag k="addr:housenumber" v="904" /><tag k="addr:street" v="East Richmond Street" /></node><node id="-912" lat="40.49127131057626" lon="-86.11758292249333" visible="true"><tag k="addr:housenumber" v="1142" /><tag k="addr:street" v="East Jefferson Street" /></node><node id="-913" lat="40.48822294423967" lon="-86.11785960606889" visible="true"><tag k="addr:housenumber" v="1135" /><tag k="addr:street" v="East Mulberry Street" /></node><node id="-914" lat="40.49376965091984" lon="-86.1187474863973" visible="true"><tag k="addr:housenumber" v="1025" /><tag k="addr:street" v="East Richmond Street" /></node><node id="-915" lat="40.48746017086894" lon="-86.1142594639562" visible="true"><tag k="addr:housenumber" v="100" /><tag k="addr:street" v="South Elizabeth Street" /></node><node id="-916" lat="40.487594337691775" lon="-86.12570100369817" visible="true"><tag k="addr:housenumber" v="524" /><tag k="addr:street" v="East Walnut Street" /></node><node id="-917" lat="40.49322335026248" lon="-86.12133723886686" visible="true"><tag k="addr:housenumber" v="804" /><tag k="addr:street" v="North Locke Street" /></node><node id="-918" lat="40.48725567469387" lon="-86.10885917871867" visible="true"><tag k="addr:housenumber" v="139" /><tag k="addr:street" v="Creekside Drive" /></node><node id="-920" lat="40.48928754080913" lon="-86.11379291253812" visible="true"><tag k="addr:housenumber" v="1423" /><tag k="addr:street" v="East Taylor Street" /></node><node id="-922" lat="40.492277176365185" lon="-86.12004648459839" visible="true"><tag k="addr:housenumber" v="1006" /><tag k="addr:street" v="East Monroe Street" /></node><node id="-923" lat="40.4931183682782" lon="-86.12410622977902" visible="true"><tag k="addr:housenumber" v="812" /><tag k="addr:street" v="North Purdum Street" /></node><node id="-924" lat="40.486929104677095" lon="-86.12121591996096" visible="true"><tag k="addr:housenumber" v="918" /><tag k="addr:street" v="East Sycamore Street" /></node><node id="-927" lat="40.48921259098599" lon="-86.11662535655373" visible="true"><tag k="addr:housenumber" v="1217" /><tag k="addr:street" v="East Taylor Street" /></node><node id="-928" lat="40.489663329291666" lon="-86.12617129368425" visible="true"><tag k="addr:housenumber" v="516" /><tag k="addr:street" v="East Taylor Street" /></node><node id="-929" lat="40.48909488941836" lon="-86.12495905874177" visible="true"><tag k="addr:housenumber" v="613" /><tag k="addr:street" v="East Taylor Street" /></node><node id="-930" lat="40.486175463650454" lon="-86.12262799727392" visible="true"><tag k="addr:housenumber" v="109" /><tag k="addr:street" v="South Locke St &amp; 111" /></node><node id="-931" lat="40.490812237997034" lon="-86.12417498832896" visible="true"><tag k="addr:housenumber" v="703" /><tag k="addr:street" v="East Jefferson Street" /></node><node id="-933" lat="40.48821365823858" lon="-86.12346310856444" visible="true"><tag k="addr:housenumber" v="715" /><tag k="addr:street" v="East Mulberry Street" /></node><node id="-935" lat="40.48729316286625" lon="-86.12161092913077" visible="true"><tag k="addr:housenumber" v="911" /><tag k="addr:street" v="East Walnut Street" /></node><node id="-936" lat="40.48820181729843" lon="-86.11696122634363" visible="true"><tag k="addr:housenumber" v="1209" /><tag k="addr:street" v="East Mulberry Street" /></node><node id="-937" lat="40.48787344537821" lon="-86.11312325768297" visible="true"><tag k="addr:housenumber" v="1449" /><tag k="addr:street" v="East Sycamore Street" /></node><node id="-938" lat="40.49140389683427" lon="-86.11364552765573" visible="true"><tag k="addr:housenumber" v="1370" /><tag k="addr:street" v="East Jefferson Street" /></node><node id="-939" lat="40.49038428714966" lon="-86.12709905327266" visible="true"><tag k="addr:housenumber" v="503" /><tag k="addr:street" v="North Apperson Way" /></node><node id="-940" lat="40.49135736733201" lon="-86.12467788744772" visible="true"><tag k="addr:housenumber" v="615" /><tag k="addr:street" v="North Purdum Street" /></node><node id="-941" lat="40.48785427292208" lon="-86.12077918566015" visible="true"><tag k="addr:housenumber" v="928" /><tag k="addr:street" v="East Walnut Street" /></node><node id="-942" lat="40.49511565117276" lon="-86.12599958557689" visible="true"><tag k="addr:housenumber" v="1023" /><tag k="addr:street" v="North Bell Street" /></node><node id="-943" lat="40.487725701367026" lon="-86.12468162783493" visible="true"><tag k="addr:housenumber" v="612" /><tag k="addr:street" v="East Walnut Street" /></node><node id="-944" lat="40.48556578881845" lon="-86.12060469645394" visible="true"><tag k="addr:housenumber" v="1013" /><tag k="addr:street" v="East Superior Street" /></node><node id="-945" lat="40.492621222421974" lon="-86.12017007375532" visible="true"><tag k="addr:housenumber" v="1007" /><tag k="addr:street" v="East Madison Street" /></node><node id="-946" lat="40.49276299314894" lon="-86.11383140496349" visible="true"><tag k="addr:housenumber" v="1425" /><tag k="addr:street" v="East Madison Street" /></node><node id="-947" lat="40.489805770889994" lon="-86.11252486605619" visible="true"><tag k="addr:housenumber" v="1516" /><tag k="addr:street" v="East Taylor Street" /></node><node id="-948" lat="40.49064036699002" lon="-86.1266429580389" visible="true"><tag k="addr:housenumber" v="512" /><tag k="addr:street" v="North Apperson Way" /></node><node id="-950" lat="40.487717028387756" lon="-86.11558481287743" visible="true"><tag k="addr:housenumber" v="1234" /><tag k="addr:street" v="East Sycamore Street" /></node><node id="-952" lat="40.48773501436459" lon="-86.11020592589725" visible="true"><tag k="addr:housenumber" v="1607" /><tag k="addr:street" v="East Sycamore Street" /></node><node id="-953" lat="40.48359831200093" lon="-86.11593966110232" visible="true"><tag k="addr:housenumber" v="1221" /><tag k="addr:street" v="East Carter Street" /></node><node id="-954" lat="40.49172698275919" lon="-86.12022788947044" visible="true"><tag k="addr:housenumber" v="1001" /><tag k="addr:street" v="East Monroe Street" /></node><node id="-955" lat="40.490859249816346" lon="-86.11075360686364" visible="true"><tag k="addr:housenumber" v="1505" /><tag k="addr:street" v="East Jefferson Street" /></node><node id="-956" lat="40.48929834076228" lon="-86.11769982884428" visible="true"><tag k="addr:housenumber" v="1137" /><tag k="addr:street" v="East Taylor Street" /></node><node id="-957" lat="40.48730692181924" lon="-86.12139297691485" visible="true"><tag k="addr:housenumber" v="915" /><tag k="addr:street" v="East Walnut Street" /></node><node id="-959" lat="40.4854247458238" lon="-86.12280982308305" visible="true"><tag k="addr:housenumber" v="817" /><tag k="addr:street" v="East Superior Street" /></node><node id="-960" lat="40.48874827711483" lon="-86.1181616008508" visible="true"><tag k="addr:housenumber" v="1116" /><tag k="addr:street" v="East Mulberry Street" /></node><node id="-961" lat="40.48977555884484" lon="-86.1230254253421" visible="true"><tag k="addr:housenumber" v="410" /><tag k="addr:street" v="North Jay Street" /></node><node id="-963" lat="40.494617319214534" lon="-86.11950367024538" visible="true"><tag k="addr:housenumber" v="1001" /><tag k="addr:street" v="East Havens Street" /></node><node id="-964" lat="40.486828565443396" lon="-86.12321259628148" visible="true"><tag k="addr:housenumber" v="802" /><tag k="addr:street" v="East Sycamore Street" /></node><node id="-966" lat="40.494632391027096" lon="-86.11832116605459" visible="true"><tag k="addr:housenumber" v="1039" /><tag k="addr:street" v="East Havens Street" /></node><node id="-967" lat="40.48917686335907" lon="-86.12345885633694" visible="true"><tag k="addr:housenumber" v="719" /><tag k="addr:street" v="East Taylor Street" /></node><node id="-970" lat="40.489789443397505" lon="-86.11365705270458" visible="true"><tag k="addr:housenumber" v="1422" /><tag k="addr:street" v="East Taylor Street" /></node><node id="-972" lat="40.49050460872485" lon="-86.1146357491728" visible="true"><tag k="addr:housenumber" v="1261" /><tag k="addr:street" v="East Jefferson Street" /></node><node id="-973" lat="40.494654965783006" lon="-86.12477964476186" visible="true"><tag k="addr:housenumber" v="1005" /><tag k="addr:street" v="North Purdum Street" /></node><node id="-974" lat="40.491562822184925" lon="-86.11684030951723" visible="true"><tag k="addr:housenumber" v="1210" /><tag k="addr:street" v="East Jefferson Street" /></node><node id="-975" lat="40.488226464370726" lon="-86.1218593515081" visible="true"><tag k="addr:housenumber" v="812" /><tag k="addr:street" v="East Mulberry Street" /></node><node id="-976" lat="40.48953744344074" lon="-86.12483761945315" visible="true"><tag k="addr:housenumber" v="614" /><tag k="addr:street" v="East Taylor Street" /></node><node id="-978" lat="40.485392829242656" lon="-86.11242412261635" visible="true"><tag k="addr:housenumber" v="215" /><tag k="addr:street" v="South Cooper Street" /></node><node id="-980" lat="40.48923287137306" lon="-86.11999816967499" visible="true"><tag k="addr:housenumber" v="1007" /><tag k="addr:street" v="East Taylor Street" /></node><node id="-981" lat="40.49342369645605" lon="-86.12478315389808" visible="true"><tag k="addr:housenumber" v="815" /><tag k="addr:street" v="North Purdum Street" /></node><node id="-982" lat="40.4854978522113" lon="-86.11296786650792" visible="true"><tag k="addr:housenumber" v="210" /><tag k="addr:street" v="South Calumet Street" /></node><node id="-983" lat="40.495456427844566" lon="-86.12091084801084" visible="true"><tag k="addr:housenumber" v="923" /><tag k="addr:street" v="East Elm Street" /></node><node id="-985" lat="40.48969585661982" lon="-86.11899730716665" visible="true"><tag k="addr:housenumber" v="1104" /><tag k="addr:street" v="East Taylor Street" /></node><node id="-986" lat="40.49167395105437" lon="-86.12374628611724" visible="true"><tag k="addr:housenumber" v="713" /><tag k="addr:street" v="East Monroe Street" /></node><node id="-987" lat="40.49130172061119" lon="-86.12005013037009" visible="true"><tag k="addr:housenumber" v="1006" /><tag k="addr:street" v="East Jefferson Street" /></node><node id="-988" lat="40.484623691314646" lon="-86.11420826366485" visible="true"><tag k="addr:housenumber" v="310" /><tag k="addr:street" v="South Elizabeth Street" /></node><node id="-990" lat="40.48862727966803" lon="-86.12709540418398" visible="true"><tag k="addr:housenumber" v="408" /><tag k="addr:street" v="East Mulberry Street" /></node><node id="-991" lat="40.48863473780114" lon="-86.10998662720115" visible="true"><tag k="addr:housenumber" v="1615" /><tag k="addr:street" v="East Sycamore Street" /></node><node id="-992" lat="40.48920190491549" lon="-86.12102312579799" visible="true"><tag k="addr:housenumber" v="923" /><tag k="addr:street" v="East Taylor Street" /></node><node id="-993" lat="40.488077267495754" lon="-86.12654255488182" visible="true"><tag k="addr:housenumber" v="505" /><tag k="addr:street" v="East Mulberry Street" /></node><node id="-994" lat="40.49144628067331" lon="-86.10831500489715" visible="true"><tag k="addr:housenumber" v="1624" /><tag k="addr:street" v="East Jefferson Street" /></node><node id="-995" lat="40.488788091221956" lon="-86.11441883280892" visible="true"><tag k="addr:housenumber" v="1330" /><tag k="addr:street" v="East Mulberry Street" /></node><node id="-996" lat="40.49013166660077" lon="-86.12179161559065" visible="true"><tag k="addr:housenumber" v="907" /><tag k="addr:street" v="East Jackson Street" /></node><node id="-997" lat="40.491249001094" lon="-86.12231928533352" visible="true"><tag k="addr:housenumber" v="601" /><tag k="addr:street" v="North Locke Street" /></node><node id="-998" lat="40.49460364012992" lon="-86.12057660956175" visible="true"><tag k="addr:housenumber" v="935" /><tag k="addr:street" v="East Havens Street" /></node><node id="-999" lat="40.484649957899045" lon="-86.12432714878263" visible="true"><tag k="addr:housenumber" v="228" /><tag k="addr:street" v="South Purdum Street" /></node><node id="-1000" lat="40.48923330632967" lon="-86.11530728171837" visible="true"><tag k="addr:housenumber" v="1305" /><tag k="addr:street" v="East Taylor Street" /></node><node id="-1001" lat="40.48584849137613" lon="-86.12673763442473" visible="true"><tag k="addr:housenumber" v="400" /><tag k="addr:street" v="East Superior Street" /></node><node id="-1002" lat="40.485915320816105" lon="-86.12196772901544" visible="true"><tag k="addr:housenumber" v="906" /><tag k="addr:street" v="East Superior Street" /></node><node id="-1003" lat="40.49174819073935" lon="-86.11832406535059" visible="true"><tag k="addr:housenumber" v="1125" /><tag k="addr:street" v="East Monroe Street" /></node><node id="-1004" lat="40.49139243275288" lon="-86.1144690938704" visible="true"><tag k="addr:housenumber" v="1300" /><tag k="addr:street" v="East Jefferson Street" /></node><node id="-1005" lat="40.488715408686694" lon="-86.11551834134946" visible="true"><tag k="addr:housenumber" v="1240" /><tag k="addr:street" v="East Mulberry Street" /></node><node id="-1006" lat="40.49392717737301" lon="-86.12600262711238" visible="true"><tag k="addr:housenumber" v="905" /><tag k="addr:street" v="North Bell Street" /></node><node id="-1007" lat="40.48971787972543" lon="-86.1170657540405" visible="true"><tag k="addr:housenumber" v="1204" /><tag k="addr:street" v="East Taylor Street" /></node><node id="-1008" lat="40.48742057696499" lon="-86.11825991069247" visible="true"><tag k="addr:housenumber" v="1125" /><tag k="addr:street" v="East Walnut Street" /></node><node id="-1009" lat="40.486195430763566" lon="-86.12679466656746" visible="true"><tag k="addr:housenumber" v="415" /><tag k="addr:street" v="East Sycamore Street" /></node><node id="-1010" lat="40.494102908560755" lon="-86.12653403592664" visible="true"><tag k="addr:housenumber" v="920" /><tag k="addr:street" v="North Apperson Way" /></node><node id="-1012" lat="40.49444103282426" lon="-86.11009018852992" visible="true"><tag k="addr:housenumber" v="1715" /><tag k="addr:street" v="East Havens Street" /></node><node id="-1013" lat="40.4906125507005" lon="-86.1130117980064" visible="true"><tag k="addr:housenumber" v="500" /><tag k="addr:street" v="North Calumet Street" /></node><node id="-1014" lat="40.48918419164509" lon="-86.12295871852636" visible="true"><tag k="addr:housenumber" v="801" /><tag k="addr:street" v="East Taylor Street" /></node><node id="-1015" lat="40.49222495919235" lon="-86.12249105944905" visible="true"><tag k="addr:housenumber" v="812" /><tag k="addr:street" v="East Monroe Street" /></node><node id="-1016" lat="40.48916957579194" lon="-86.12395509347715" visible="true"><tag k="addr:housenumber" v="705" /><tag k="addr:street" v="East Taylor Street" /></node><node id="-1017" lat="40.484139563436116" lon="-86.11398906239808" visible="true"><tag k="addr:housenumber" v="1416" /><tag k="addr:street" v="East Carter Street" /></node><node id="-1018" lat="40.49054413789631" lon="-86.12417546858741" visible="true"><tag k="addr:housenumber" v="700" /><tag k="addr:street" v="East Jackson Street" /></node><node id="-1019" lat="40.49318541547976" lon="-86.11425236023878" visible="true"><tag k="addr:housenumber" v="1403" /><tag k="addr:street" v="East Madison Street" /></node><node id="-1020" lat="40.485862031395" lon="-86.12321931291011" visible="true"><tag k="addr:housenumber" v="808" /><tag k="addr:street" v="East Superior Street" /></node><node id="-1021" lat="40.48865016627442" lon="-86.12482448481416" visible="true"><tag k="addr:housenumber" v="614" /><tag k="addr:street" v="East Mulberry Street" /></node><node id="-1023" lat="40.489238125704695" lon="-86.11963819555034" visible="true"><tag k="addr:housenumber" v="1015" /><tag k="addr:street" v="East Taylor Street" /></node><node id="-1024" lat="40.48474926912612" lon="-86.12492657078421" visible="true"><tag k="addr:housenumber" v="223" /><tag k="addr:street" v="South Purdum Street" /></node><node id="-1025" lat="40.49171628404682" lon="-86.12118693722809" visible="true"><tag k="addr:housenumber" v="921" /><tag k="addr:street" v="East Monroe Street" /></node><node id="-1026" lat="40.48602624285976" lon="-86.12480899693728" visible="true"><tag k="addr:housenumber" v="615" /><tag k="addr:street" v="East Sycamore Street" /></node><node id="-1027" lat="40.487157773205574" lon="-86.11798664496499" visible="true"><tag k="addr:housenumber" v="1134" /><tag k="addr:street" v="East Sycamore Street" /></node><node id="-1028" lat="40.49087269129569" lon="-86.12273838216667" visible="true"><tag k="addr:housenumber" v="809" /><tag k="addr:street" v="East Jefferson Street" /></node><node id="-1030" lat="40.492350490376225" lon="-86.1142516125009" visible="true"><tag k="addr:housenumber" v="1406" /><tag k="addr:street" v="East Monroe Street" /></node><node id="-1031" lat="40.49045634732056" lon="-86.11820979210634" visible="true"><tag k="addr:housenumber" v="1123" /><tag k="addr:street" v="East Jefferson Street" /></node><node id="-1032" lat="40.484523391994856" lon="-86.11371864288381" visible="true"><tag k="addr:housenumber" v="313" /><tag k="addr:street" v="South Calumet Street" /></node><node id="-1034" lat="40.49525627378285" lon="-86.12653119555773" visible="true"><tag k="addr:housenumber" v="1026" /><tag k="addr:street" v="North Apperson Way" /></node><node id="-1035" lat="40.49424109221857" lon="-86.11840747719408" visible="true"><tag k="addr:housenumber" v="1032" /><tag k="addr:street" v="East Richmond Street" /></node><node id="-1036" lat="40.48673844293689" lon="-86.12679956128079" visible="true"><tag k="addr:housenumber" v="500" /><tag k="addr:street" v="East Sycamore Street" /></node><node id="-1037" lat="40.49315413641444" lon="-86.11488638989805" visible="true"><tag k="addr:housenumber" v="733" /><tag k="addr:street" v="North Elizabeth Street" /></node><node id="-1038" lat="40.488652176240414" lon="-86.12359567381328" visible="true"><tag k="addr:housenumber" v="714" /><tag k="addr:street" v="East Mulberry Street" /></node><node id="-1040" lat="40.48768109397372" lon="-86.12658646192571" visible="true"><tag k="addr:housenumber" v="504" /><tag k="addr:street" v="East Walnut Street" /></node><node id="-1041" lat="40.48779904012404" lon="-86.10816213642592" visible="true"><tag k="addr:housenumber" v="148" /><tag k="addr:street" v="Creekside Drive" /></node><node id="-1042" lat="40.489198611272535" lon="-86.11841116235684" visible="true"><tag k="addr:housenumber" v="1121" /><tag k="addr:street" v="East Taylor Street" /></node><node id="-1043" lat="40.49413654495849" lon="-86.1170376265414" visible="true"><tag k="addr:housenumber" v="810" /><tag k="addr:street" v="North Ohio Avenue" /></node><node id="-1044" lat="40.490550504520456" lon="-86.12297818338736" visible="true"><tag k="addr:housenumber" v="800" /><tag k="addr:street" v="East Jackson Street" /></node><node id="-1045" lat="40.49004912528695" lon="-86.11874604974908" visible="true"><tag k="addr:housenumber" v="410" /><tag k="addr:street" v="North Delphos Street" /></node><node id="-1046" lat="40.483935752986234" lon="-86.12357747655933" visible="true"><tag k="addr:housenumber" v="330" /><tag k="addr:street" v="South Purdum Street" /></node><node id="-1047" lat="40.49460795858491" lon="-86.12023874893787" visible="true"><tag k="addr:housenumber" v="941" /><tag k="addr:street" v="East Havens Street" /></node><node id="-1048" lat="40.491793435458966" lon="-86.12595223156957" visible="true"><tag k="addr:housenumber" v="625" /><tag k="addr:street" v="North Bell Street" /></node><node id="-1049" lat="40.49183272754221" lon="-86.12240592737209" visible="true"><tag k="addr:housenumber" v="625" /><tag k="addr:street" v="North Locke Street" /></node><node id="-1050" lat="40.488189367821576" lon="-86.12117549439589" visible="true"><tag k="addr:housenumber" v="925" /><tag k="addr:street" v="East Mulberry Street" /></node><node id="-1051" lat="40.48922181675828" lon="-86.11603907037623" visible="true"><tag k="addr:housenumber" v="1233" /><tag k="addr:street" v="East Taylor Street" /></node><node id="-1052" lat="40.48919551848386" lon="-86.12129648266546" visible="true"><tag k="addr:housenumber" v="913" /><tag k="addr:street" v="East Taylor Street" /></node><node id="-1053" lat="40.48894728906775" lon="-86.12454131414515" visible="true"><tag k="addr:housenumber" v="315" /><tag k="addr:street" v="North Purdum Street" /></node><node id="-1054" lat="40.484745356398484" lon="-86.11242659786457" visible="true"><tag k="addr:housenumber" v="307" /><tag k="addr:street" v="South Cooper Street" /></node><node id="-1055" lat="40.49214370580316" lon="-86.12275626333798" visible="true"><tag k="addr:housenumber" v="810" /><tag k="addr:street" v="East Monroe Street" /></node><node id="-1056" lat="40.491409204584215" lon="-86.1122745810978" visible="true"><tag k="addr:housenumber" v="1406" /><tag k="addr:street" v="East Jefferson Street" /></node><node id="-1057" lat="40.48823650572545" lon="-86.1227517399117" visible="true"><tag k="addr:housenumber" v="809" /><tag k="addr:street" v="East Mulberry Street" /></node><node id="-1059" lat="40.488815688929144" lon="-86.1207270254569" visible="true"><tag k="addr:housenumber" v="932" /><tag k="addr:street" v="East Mulberry Street" /></node><node id="-1060" lat="40.49409895869287" lon="-86.12478123856164" visible="true"><tag k="addr:housenumber" v="915" /><tag k="addr:street" v="North Purdum Street" /></node><node id="-1061" lat="40.48711291073046" lon="-86.1141639143621" visible="true"><tag k="addr:housenumber" v="114" /><tag k="addr:street" v="South Elizabeth Street" /></node><node id="-1062" lat="40.491718363494186" lon="-86.12100015362805" visible="true"><tag k="addr:housenumber" v="927" /><tag k="addr:street" v="East Monroe Street" /></node><node id="-1063" lat="40.492252864571846" lon="-86.11036891763717" visible="true"><tag k="addr:housenumber" v="1510" /><tag k="addr:street" v="East Jefferson Street" /></node><node id="-1064" lat="40.495079335265494" lon="-86.11989881748293" visible="true"><tag k="addr:housenumber" v="948" /><tag k="addr:street" v="East Havens Street" /></node><node id="-1065" lat="40.489721110240396" lon="-86.12058304340471" visible="true"><tag k="addr:housenumber" v="938" /><tag k="addr:street" v="East Taylor Street" /></node><node id="-1066" lat="40.49452955996938" lon="-86.12600108997093" visible="true"><tag k="addr:housenumber" v="1003" /><tag k="addr:street" v="North Bell Street" /></node><node id="-1067" lat="40.486002416760996" lon="-86.12098096796294" visible="true"><tag k="addr:housenumber" v="1004" /><tag k="addr:street" v="East Superior Street" /></node><node id="-1068" lat="40.491496248927994" lon="-86.1265404198869" visible="true"><tag k="addr:housenumber" v="612" /><tag k="addr:street" v="North Apperson Way" /></node><node id="-1069" lat="40.48714922148152" lon="-86.12685172775988" visible="true"><tag k="addr:housenumber" v="413" /><tag k="addr:street" v="East Walnut Street" /></node><node id="-1070" lat="40.489338405463535" lon="-86.10938256486882" visible="true"><tag k="addr:housenumber" v="1628" /><tag k="addr:street" v="East Sycamore Street" /></node><node id="-1071" lat="40.486787655213554" lon="-86.12471723217308" visible="true"><tag k="addr:housenumber" v="620" /><tag k="addr:street" v="East Sycamore Street" /></node><node id="-1072" lat="40.48561960458897" lon="-86.11176479899709" visible="true"><tag k="addr:housenumber" v="206" /><tag k="addr:street" v="South Cooper Street" /></node><node id="-1073" lat="40.4879816046316" lon="-86.12584320455818" visible="true"><tag k="addr:housenumber" v="515" /><tag k="addr:street" v="East Mulberry Street" /></node><node id="-1074" lat="40.488193317251195" lon="-86.12567861006359" visible="true"><tag k="addr:housenumber" v="527" /><tag k="addr:street" v="East Mulberry Street" /></node><node id="-1075" lat="40.48874943709203" lon="-86.1180016574963" visible="true"><tag k="addr:housenumber" v="1118" /><tag k="addr:street" v="East Mulberry Street" /></node><node id="-1076" lat="40.489249468915794" lon="-86.1142785568569" visible="true"><tag k="addr:housenumber" v="1333" /><tag k="addr:street" v="East Taylor Street" /></node><node id="-1077" lat="40.49305232419772" lon="-86.12531501912858" visible="true"><tag k="addr:housenumber" v="802" /><tag k="addr:street" v="North Bell Street" /></node><node id="-1078" lat="40.48696094295889" lon="-86.12080821450971" visible="true"><tag k="addr:housenumber" v="928" /><tag k="addr:street" v="East Sycamore Street" /></node><node id="-1081" lat="40.49082007084503" lon="-86.11891747117521" visible="true"><tag k="addr:housenumber" v="1105" /><tag k="addr:street" v="East Jefferson Street" /></node><node id="-1082" lat="40.48627189003918" lon="-86.12316776841716" visible="true"><tag k="addr:housenumber" v="815" /><tag k="addr:street" v="East Sycamore Street" /></node><node id="-1083" lat="40.4897626191351" lon="-86.11427569254498" visible="true"><tag k="addr:housenumber" v="1332" /><tag k="addr:street" v="East Taylor Street" /></node><node id="-1085" lat="40.48767779186184" lon="-86.11593208009462" visible="true"><tag k="addr:housenumber" v="1232" /><tag k="addr:street" v="East Sycamore Street" /></node><node id="-1088" lat="40.49395612511996" lon="-86.1235540962606" visible="true"><tag k="addr:housenumber" v="901" /><tag k="addr:street" v="North Jay St &amp; 903 905 907" /></node><node id="-1089" lat="40.48414844044537" lon="-86.11306330866998" visible="true"><tag k="addr:housenumber" v="1500" /><tag k="addr:street" v="East Carter Street" /></node><node id="-1090" lat="40.48865484081091" lon="-86.1170602291529" visible="true"><tag k="addr:housenumber" v="1148" /><tag k="addr:street" v="East Mulberry Street" /></node><node id="-1091" lat="40.48586130008604" lon="-86.12554223843144" visible="true"><tag k="addr:housenumber" v="530" /><tag k="addr:street" v="East Superior Street" /></node><node id="-1092" lat="40.49334949433638" lon="-86.12531422007373" visible="true"><tag k="addr:housenumber" v="814" /><tag k="addr:street" v="North Bell Street" /></node><node id="-1093" lat="40.486485024073865" lon="-86.11241801054378" visible="true"><tag k="addr:housenumber" v="111" /><tag k="addr:street" v="South Cooper Street" /></node><node id="-1094" lat="40.49387887407309" lon="-86.10848352862999" visible="true"><tag k="addr:housenumber" v="1745" /><tag k="addr:street" v="East Havens Street" /></node><node id="-1095" lat="40.483592071506465" lon="-86.11642554756718" visible="true"><tag k="addr:housenumber" v="1217" /><tag k="addr:street" v="East Carter Street" /></node><node id="-1096" lat="40.4950576962825" lon="-86.12158827559347" visible="true"><tag k="addr:housenumber" v="908" /><tag k="addr:street" v="East Havens Street" /></node><node id="-1098" lat="40.49022460571261" lon="-86.11251111761366" visible="true"><tag k="addr:housenumber" v="416" /><tag k="addr:street" v="North Calumet Street" /></node><node id="-1100" lat="40.49390285566419" lon="-86.12653450384562" visible="true"><tag k="addr:housenumber" v="910" /><tag k="addr:street" v="North Apperson Way" /></node><node id="-1101" lat="40.48929478690796" lon="-86.10966948438639" visible="true"><tag k="addr:housenumber" v="1622" /><tag k="addr:street" v="East Sycamore Street" /></node><node id="-1105" lat="40.49128495003261" lon="-86.12156223985323" visible="true"><tag k="addr:housenumber" v="910" /><tag k="addr:street" v="East Jefferson Street" /></node><node id="-1106" lat="40.48624317952011" lon="-86.12614942397465" visible="true"><tag k="addr:housenumber" v="513" /><tag k="addr:street" v="East Sycamore Street" /></node><node id="-1108" lat="40.49374668061406" lon="-86.12057056514185" visible="true"><tag k="addr:housenumber" v="935" /><tag k="addr:street" v="East Richmond Street" /></node><node id="-1109" lat="40.48724952946703" lon="-86.12272942251283" visible="true"><tag k="addr:housenumber" v="809" /><tag k="addr:street" v="East Walnut Street" /></node><node id="-1110" lat="40.48618604798688" lon="-86.12513568975848" visible="true"><tag k="addr:housenumber" v="609" /><tag k="addr:street" v="East Sycamore Street" /></node><node id="-1111" lat="40.48924254311396" lon="-86.11471997059265" visible="true"><tag k="addr:housenumber" v="1321" /><tag k="addr:street" v="East Taylor Street" /></node><node id="-1112" lat="40.48513635551673" lon="-86.1242766889259" visible="true"><tag k="addr:housenumber" v="210" /><tag k="addr:street" v="South Purdum Street" /></node><node id="-1113" lat="40.48549109528666" lon="-86.12153768163257" visible="true"><tag k="addr:housenumber" v="915" /><tag k="addr:street" v="East Superior Street" /></node><node id="-1114" lat="40.4900993543651" lon="-86.12241613234464" visible="true"><tag k="addr:housenumber" v="815" /><tag k="addr:street" v="East Jackson Street" /></node><node id="-1115" lat="40.49227736002354" lon="-86.12478546100093" visible="true"><tag k="addr:housenumber" v="707" /><tag k="addr:street" v="North Purdum Street" /></node><node id="-1116" lat="40.48732215288699" lon="-86.12119495160907" visible="true"><tag k="addr:housenumber" v="921" /><tag k="addr:street" v="East Walnut Street" /></node><node id="-1117" lat="40.48684018601729" lon="-86.12254957440179" visible="true"><tag k="addr:housenumber" v="812" /><tag k="addr:street" v="East Sycamore Street" /></node><node id="-1118" lat="40.48827765488549" lon="-86.11456742432286" visible="true"><tag k="addr:housenumber" v="1407" /><tag k="addr:street" v="East Mulberry Street" /></node><node id="-1119" lat="40.485992298745245" lon="-86.12109691258163" visible="true"><tag k="addr:housenumber" v="1000" /><tag k="addr:street" v="East Superior Street" /></node><node id="-1120" lat="40.49462486335437" lon="-86.11891245423054" visible="true"><tag k="addr:housenumber" v="1019" /><tag k="addr:street" v="East Havens Street" /></node><node id="-1121" lat="40.48547910717116" lon="-86.12257385314004" visible="true"><tag k="addr:housenumber" v="823" /><tag k="addr:street" v="East Superior Street" /></node><node id="-1122" lat="40.48595199534861" lon="-86.12261474712969" visible="true"><tag k="addr:housenumber" v="115" /><tag k="addr:street" v="South Locke Street" /></node><node id="-1124" lat="40.49076143487773" lon="-86.11575786745756" visible="true"><tag k="addr:housenumber" v="1239" /><tag k="addr:street" v="East Jefferson Street" /></node><node id="-1125" lat="40.48583779115" lon="-86.11176354402257" visible="true"><tag k="addr:housenumber" v="200" /><tag k="addr:street" v="South Cooper Street" /></node><node id="-1128" lat="40.48979658280442" lon="-86.1246393949018" visible="true"><tag k="addr:housenumber" v="409" /><tag k="addr:street" v="North Purdum Street" /></node><node id="-1129" lat="40.488747877443835" lon="-86.11709976932721" visible="true"><tag k="addr:housenumber" v="300" /><tag k="addr:street" v="North Ohio Avenue" /></node><node id="-1130" lat="40.49183376180932" lon="-86.11346257065286" visible="true"><tag k="addr:housenumber" v="1427" /><tag k="addr:street" v="East Monroe Street" /></node><node id="-1131" lat="40.491214441013405" lon="-86.12543849993607" visible="true"><tag k="addr:housenumber" v="602" /><tag k="addr:street" v="East Jefferson Street" /></node><node id="-1132" lat="40.48715602380353" lon="-86.12654958560472" visible="true"><tag k="addr:housenumber" v="505" /><tag k="addr:street" v="East Walnut Street" /></node><node id="-1133" lat="40.49130768951043" lon="-86.11951137113792" visible="true"><tag k="addr:housenumber" v="1020" /><tag k="addr:street" v="East Jefferson Street" /></node><node id="-1134" lat="40.488220823609296" lon="-86.11914979664196" visible="true"><tag k="addr:housenumber" v="1101" /><tag k="addr:street" v="East Mulberry Street" /></node><node id="-1136" lat="40.487147584691535" lon="-86.12704905321674" visible="true"><tag k="addr:housenumber" v="409" /><tag k="addr:street" v="East Walnut Street" /></node><node id="-1138" lat="40.48777983763269" lon="-86.12274737409253" visible="true"><tag k="addr:housenumber" v="810" /><tag k="addr:street" v="East Walnut Street" /></node><node id="-1140" lat="40.48872714113805" lon="-86.11962774927474" visible="true"><tag k="addr:housenumber" v="1014" /><tag k="addr:street" v="East Mulberry Street" /></node><node id="-1141" lat="40.49373153135354" lon="-86.12177038291784" visible="true"><tag k="addr:housenumber" v="905" /><tag k="addr:street" v="East Richmond Street" /></node><node id="-1143" lat="40.48742040658877" lon="-86.11803650728002" visible="true"><tag k="addr:housenumber" v="1129" /><tag k="addr:street" v="East Walnut Street" /></node><node id="-1145" lat="40.48973190326617" lon="-86.11974570640604" visible="true"><tag k="addr:housenumber" v="1012" /><tag k="addr:street" v="East Taylor Street" /></node><node id="-1147" lat="40.486358357997865" lon="-86.12147878903295" visible="true"><tag k="addr:housenumber" v="101" /><tag k="addr:street" v="South Faulkner Street" /></node><node id="-1149" lat="40.487194215390225" lon="-86.12416798164749" visible="true"><tag k="addr:housenumber" v="701" /><tag k="addr:street" v="East Walnut St &amp; 703" /></node><node id="-1150" lat="40.49034936461903" lon="-86.11301212156226" visible="true"><tag k="addr:housenumber" v="422" /><tag k="addr:street" v="North Calumet Street" /></node><node id="-1151" lat="40.49060370216024" lon="-86.11364291483811" visible="true"><tag k="addr:housenumber" v="501" /><tag k="addr:street" v="North Calumet Street" /></node><node id="-1154" lat="40.49078107493605" lon="-86.12603503284674" visible="true"><tag k="addr:housenumber" v="517" /><tag k="addr:street" v="East Jefferson Street" /></node><node id="-1157" lat="40.486265229070355" lon="-86.11296408760106" visible="true"><tag k="addr:housenumber" v="116" /><tag k="addr:street" v="South Calumet Street" /></node><node id="-1158" lat="40.494219986461786" lon="-86.12007153412502" visible="true"><tag k="addr:housenumber" v="946" /><tag k="addr:street" v="East Richmond Street" /></node><node id="-1159" lat="40.48821056479752" lon="-86.120370675856" visible="true"><tag k="addr:housenumber" v="939" /><tag k="addr:street" v="East Mulberry Street" /></node><node id="-1160" lat="40.48801068951715" lon="-86.11406687475737" visible="true"><tag k="addr:housenumber" v="1411" /><tag k="addr:street" v="East Mulberry Street" /></node><node id="-1161" lat="40.49424750500296" lon="-86.11790071526751" visible="true"><tag k="addr:housenumber" v="1042" /><tag k="addr:street" v="East Richmond Street" /></node><node id="-1162" lat="40.48826776746074" lon="-86.11939117421363" visible="true"><tag k="addr:housenumber" v="1021" /><tag k="addr:street" v="East Mulberry Street" /></node><node id="-1163" lat="40.48965947759896" lon="-86.12361188934022" visible="true"><tag k="addr:housenumber" v="714" /><tag k="addr:street" v="East Taylor Street" /></node><node id="-1165" lat="40.49268690817825" lon="-86.12183902697134" visible="true"><tag k="addr:housenumber" v="718" /><tag k="addr:street" v="North Locke Street" /></node><node id="-1168" lat="40.491998103585104" lon="-86.11210375866843" visible="true"><tag k="addr:housenumber" v="640" /><tag k="addr:street" v="North Cooper Street" /></node><node id="-1169" lat="40.48856712653201" lon="-86.12385885921367" visible="true"><tag k="addr:housenumber" v="710" /><tag k="addr:street" v="East Mulberry Street" /></node><node id="-1170" lat="40.490078013788896" lon="-86.12380932300822" visible="true"><tag k="addr:housenumber" v="711" /><tag k="addr:street" v="East Jackson Street" /></node><node id="-1171" lat="40.48832726384898" lon="-86.1128768657475" visible="true"><tag k="addr:housenumber" v="1502" /><tag k="addr:street" v="East Sycamore Street" /></node><node id="-1172" lat="40.48875209636386" lon="-86.12138484481578" visible="true"><tag k="addr:housenumber" v="922" /><tag k="addr:street" v="East Mulberry Street" /></node><node id="-1173" lat="40.49183884584291" lon="-86.11309522838849" visible="true"><tag k="addr:housenumber" v="1437" /><tag k="addr:street" v="East Monroe Street" /></node><node id="-1174" lat="40.49138597261482" lon="-86.12062802166542" visible="true"><tag k="addr:housenumber" v="609" /><tag k="addr:street" v="North Waugh Street" /></node><node id="-1175" lat="40.49067912830316" lon="-86.11716483199835" visible="true"><tag k="addr:housenumber" v="1209" /><tag k="addr:street" v="East Jefferson Street" /></node><node id="-1176" lat="40.491683664450264" lon="-86.12287882484067" visible="true"><tag k="addr:housenumber" v="620" /><tag k="addr:street" v="North Jay Street" /></node><node id="-1177" lat="40.485024466128856" lon="-86.12313970623121" visible="true"><tag k="addr:housenumber" v="806" /><tag k="addr:street" v="East Maple Street" /></node><node id="-1178" lat="40.48970944003562" lon="-86.12147433914507" visible="true"><tag k="addr:housenumber" v="912" /><tag k="addr:street" v="East Taylor Street" /></node><node id="-1179" lat="40.49073131321282" lon="-86.1187385653774" visible="true"><tag k="addr:housenumber" v="1111" /><tag k="addr:street" v="East Jefferson Street" /></node><node id="-1182" lat="40.49052541197488" lon="-86.12504970272168" visible="true"><tag k="addr:housenumber" v="610" /><tag k="addr:street" v="East Jackson Street" /></node><node id="-1183" lat="40.49384629877673" lon="-86.12355444794994" visible="true"><tag k="addr:housenumber" v="823" /><tag k="addr:street" v="North Jay St &amp; 825" /></node><node id="-1184" lat="40.4937717936864" lon="-86.1185786029502" visible="true"><tag k="addr:housenumber" v="1035" /><tag k="addr:street" v="East Richmond Street" /></node><node id="-1185" lat="40.486751024461526" lon="-86.12575138561466" visible="true"><tag k="addr:housenumber" v="524" /><tag k="addr:street" v="East Sycamore Street" /></node><node id="-1186" lat="40.492620477623234" lon="-86.12600597714427" visible="true"><tag k="addr:housenumber" v="717" /><tag k="addr:street" v="North Bell  Street" /></node><node id="-1187" lat="40.488113242698475" lon="-86.12500521354822" visible="true"><tag k="addr:housenumber" v="611" /><tag k="addr:street" v="East Mulberry Street" /></node><node id="-1188" lat="40.48700980658858" lon="-86.10875449304345" visible="true"><tag k="addr:housenumber" v="145" /><tag k="addr:street" v="Creekside Drive" /></node><node id="-1189" lat="40.489290076457635" lon="-86.11363412741802" visible="true"><tag k="addr:housenumber" v="1425" /><tag k="addr:street" v="East Taylor Street" /></node><node id="-1191" lat="40.489710130586495" lon="-86.11769435257719" visible="true"><tag k="addr:housenumber" v="1140" /><tag k="addr:street" v="East Taylor Street" /></node><node id="-1193" lat="40.49327901771166" lon="-86.1241057387289" visible="true"><tag k="addr:housenumber" v="814" /><tag k="addr:street" v="North Purdum Street" /></node><node id="-1194" lat="40.48693143754844" lon="-86.12141138429061" visible="true"><tag k="addr:housenumber" v="914" /><tag k="addr:street" v="East Sycamore Street" /></node><node id="-1195" lat="40.49227372984375" lon="-86.12710114534673" visible="true"><tag k="addr:housenumber" v="711" /><tag k="addr:street" v="North Apperson Way" /></node><node id="-1196" lat="40.48441061029363" lon="-86.12199611770204" visible="true"><tag k="addr:housenumber" v="909" /><tag k="addr:street" v="East Carter Street" /></node><node id="-1197" lat="40.48965277192299" lon="-86.12651368843791" visible="true"><tag k="addr:housenumber" v="506" /><tag k="addr:street" v="East Taylor Street" /></node><node id="-1198" lat="40.48909963176966" lon="-86.12477026934155" visible="true"><tag k="addr:housenumber" v="617" /><tag k="addr:street" v="East Taylor Street" /></node><node id="-1199" lat="40.48469907072389" lon="-86.11179783180347" visible="true"><tag k="addr:housenumber" v="306" /><tag k="addr:street" v="South Cooper Street" /></node><node id="-1200" lat="40.487295005224425" lon="-86.11654799701665" visible="true"><tag k="addr:housenumber" v="1226" /><tag k="addr:street" v="East Sycamore Street" /></node><node id="-1201" lat="40.49138527426454" lon="-86.11498445857707" visible="true"><tag k="addr:housenumber" v="1250" /><tag k="addr:street" v="East Jefferson Street" /></node><node id="-1202" lat="40.488216399761484" lon="-86.12328336783112" visible="true"><tag k="addr:housenumber" v="717" /><tag k="addr:street" v="East Mulberry Street" /></node><node id="-1203" lat="40.49078866108161" lon="-86.12545201298533" visible="true"><tag k="addr:housenumber" v="603" /><tag k="addr:street" v="East Jefferson Street" /></node><node id="-1204" lat="40.489297484380465" lon="-86.11244812323952" visible="true"><tag k="addr:housenumber" v="1521" /><tag k="addr:street" v="East Taylor Street" /></node><node id="-1205" lat="40.487284194545815" lon="-86.12177980405173" visible="true"><tag k="addr:housenumber" v="903" /><tag k="addr:street" v="East Walnut Street" /></node><node id="-1206" lat="40.48820399046142" lon="-86.11674862155182" visible="true"><tag k="addr:housenumber" v="1211" /><tag k="addr:street" v="East Mulberry Street" /></node><node id="-1207" lat="40.48750301653463" lon="-86.11279601725846" visible="true"><tag k="addr:housenumber" v="1501" /><tag k="addr:street" v="East Sycamore Street" /></node><node id="-1210" lat="40.48903902593369" lon="-86.12681838341466" visible="true"><tag k="addr:housenumber" v="417" /><tag k="addr:street" v="East Taylor Street" /></node><node id="-1211" lat="40.491176381749966" lon="-86.12467739399364" visible="true"><tag k="addr:housenumber" v="618" /><tag k="addr:street" v="East Jefferson Street" /></node><node id="-1212" lat="40.48784528726169" lon="-86.1209597642518" visible="true"><tag k="addr:housenumber" v="922" /><tag k="addr:street" v="East Walnut Street" /></node><node id="-1213" lat="40.49497016802989" lon="-86.12599995977432" visible="true"><tag k="addr:housenumber" v="1017" /><tag k="addr:street" v="North Bell Street" /></node><node id="-1214" lat="40.48523166961963" lon="-86.12075268168456" visible="true"><tag k="addr:housenumber" v="217" /><tag k="addr:street" v="South Waugh Street" /></node><node id="-1215" lat="40.49178396200331" lon="-86.12662949997637" visible="true"><tag k="addr:housenumber" v="624" /><tag k="addr:street" v="North Apperson Way" /></node><node id="-1216" lat="40.4898035257335" lon="-86.11268345662046" visible="true"><tag k="addr:housenumber" v="1514" /><tag k="addr:street" v="East Taylor Street" /></node><node id="-1217" lat="40.492760224002936" lon="-86.114032712666" visible="true"><tag k="addr:housenumber" v="1407" /><tag k="addr:street" v="East Madison Street" /></node><node id="-1218" lat="40.49005559123149" lon="-86.12621017371458" visible="true"><tag k="addr:housenumber" v="424" /><tag k="addr:street" v="North Apperson Way" /></node><node id="-1221" lat="40.488753201778096" lon="-86.10846693654676" visible="true"><tag k="addr:housenumber" v="1637" /><tag k="addr:street" v="East Sycamore Street" /></node><node id="-1222" lat="40.48570846714348" lon="-86.11420418037214" visible="true"><tag k="addr:housenumber" v="204" /><tag k="addr:street" v="South Elizabeth Street" /></node><node id="-1223" lat="40.48874455502132" lon="-86.12171776473065" visible="true"><tag k="addr:housenumber" v="906" /><tag k="addr:street" v="East Mulberry Street" /></node><node id="-1224" lat="40.483573406387805" lon="-86.11411995245226" visible="true"><tag k="addr:housenumber" v="1215" /><tag k="addr:street" v="East Carter Street" /></node><node id="-1226" lat="40.49172899134658" lon="-86.12004827810175" visible="true"><tag k="addr:housenumber" v="1007" /><tag k="addr:street" v="East Monroe Street" /></node><node id="-1227" lat="40.49086325914363" lon="-86.11044945051012" visible="true"><tag k="addr:housenumber" v="1507" /><tag k="addr:street" v="East Jefferson Street" /></node><node id="-1228" lat="40.48929859729576" lon="-86.11754262849021" visible="true"><tag k="addr:housenumber" v="1141" /><tag k="addr:street" v="East Taylor Street" /></node><node id="-1229" lat="40.487347965624906" lon="-86.12083273560923" visible="true"><tag k="addr:housenumber" v="929" /><tag k="addr:street" v="East Walnut Street" /></node><node id="-1230" lat="40.488747130359656" lon="-86.1183216161922" visible="true"><tag k="addr:housenumber" v="1114" /><tag k="addr:street" v="East Mulberry Street" /></node><node id="-1231" lat="40.495083333812964" lon="-86.1195860492353" visible="true"><tag k="addr:housenumber" v="1000" /><tag k="addr:street" v="East Havens Street" /></node><node id="-1232" lat="40.48511894250196" lon="-86.12123604554566" visible="true"><tag k="addr:housenumber" v="219" /><tag k="addr:street" v="South Faulkner Street" /></node><node id="-1233" lat="40.49542239084964" lon="-86.12477729561175" visible="true"><tag k="addr:housenumber" v="1031" /><tag k="addr:street" v="North Purdum Street" /></node><node id="-1234" lat="40.49211489025825" lon="-86.12531757105188" visible="true"><tag k="addr:housenumber" v="700" /><tag k="addr:street" v="North Bell Street" /></node><node id="-1235" lat="40.486806056490536" lon="-86.1235148824859" visible="true"><tag k="addr:housenumber" v="716" /><tag k="addr:street" v="East Sycamore Street" /></node><node id="-1236" lat="40.49463561806688" lon="-86.11806779275484" visible="true"><tag k="addr:housenumber" v="1041" /><tag k="addr:street" v="East Havens Street" /></node><node id="-1237" lat="40.48917996674217" lon="-86.12324657858387" visible="true"><tag k="addr:housenumber" v="721" /><tag k="addr:street" v="East Taylor Street" /></node><node id="-1238" lat="40.49249160893012" lon="-86.12356343444698" visible="true"><tag k="addr:housenumber" v="715" /><tag k="addr:street" v="North Jay Street" /></node><node id="-1239" lat="40.4891713220812" lon="-86.12383631868857" visible="true"><tag k="addr:housenumber" v="709" /><tag k="addr:street" v="East Taylor Street" /></node><node id="-1240" lat="40.489786965854705" lon="-86.11382209515777" visible="true"><tag k="addr:housenumber" v="1418" /><tag k="addr:street" v="East Taylor Street" /></node><node id="-1242" lat="40.49084933493792" lon="-86.11443310782133" visible="true"><tag k="addr:housenumber" v="1265" /><tag k="addr:street" v="East Jefferson Street" /></node><node id="-1245" lat="40.49428561771934" lon="-86.12355307724295" visible="true"><tag k="addr:housenumber" v="721" /><tag k="addr:street" v="East Havens St &amp; 717" /></node><node id="-1247" lat="40.49327263239309" lon="-86.1247891736133" visible="true"><tag k="addr:housenumber" v="811" /><tag k="addr:street" v="North Purdum Street" /></node><node id="-1248" lat="40.485608022437084" lon="-86.11296735595299" visible="true"><tag k="addr:housenumber" v="206" /><tag k="addr:street" v="South Calumet Street" /></node><node id="-1249" lat="40.48583121859829" lon="-86.11242195382508" visible="true"><tag k="addr:housenumber" v="201" /><tag k="addr:street" v="South Cooper Street" /></node><node id="-1250" lat="40.49167527070319" lon="-86.12362775568945" visible="true"><tag k="addr:housenumber" v="717" /><tag k="addr:street" v="East Monroe Street" /></node><node id="-1251" lat="40.48783685043432" lon="-86.12114031054507" visible="true"><tag k="addr:housenumber" v="920" /><tag k="addr:street" v="East Walnut Street" /></node><node id="-1252" lat="40.48472865883624" lon="-86.11420802615073" visible="true"><tag k="addr:housenumber" v="306" /><tag k="addr:street" v="South Elizabeth Street" /></node><node id="-1253" lat="40.49348460537574" lon="-86.12653554952497" visible="true"><tag k="addr:housenumber" v="820" /><tag k="addr:street" v="North Apperson Way" /></node><node id="-1254" lat="40.49083647389959" lon="-86.12359610765948" visible="true"><tag k="addr:housenumber" v="715" /><tag k="addr:street" v="East Jefferson Street" /></node><node id="-1256" lat="40.48775829436414" lon="-86.12345865688972" visible="true"><tag k="addr:housenumber" v="720" /><tag k="addr:street" v="East Walnut Street" /></node><node id="-1258" lat="40.487812528892434" lon="-86.10966567050824" visible="true"><tag k="addr:housenumber" v="1617" /><tag k="addr:street" v="East Sycamore Street" /></node><node id="-1259" lat="40.48874158394252" lon="-86.12187974503176" visible="true"><tag k="addr:housenumber" v="902" /><tag k="addr:street" v="East Mulberry Street" /></node><node id="-1260" lat="40.48805949176321" lon="-86.1263878768545" visible="true"><tag k="addr:housenumber" v="507" /><tag k="addr:street" v="East Mulberry St &amp; 509" /></node><node id="-1261" lat="40.491247023735724" lon="-86.12249704395279" visible="true"><tag k="addr:housenumber" v="812" /><tag k="addr:street" v="East Jefferson Street" /></node><node id="-1262" lat="40.493342943946914" lon="-86.12006992726867" visible="true"><tag k="addr:housenumber" v="815" /><tag k="addr:street" v="North Delphos Street" /></node><node id="-1263" lat="40.48735582860706" lon="-86.12057453167958" visible="true"><tag k="addr:housenumber" v="933" /><tag k="addr:street" v="East Walnut Street" /></node><node id="-1264" lat="40.486260033622194" lon="-86.11371179446238" visible="true"><tag k="addr:housenumber" v="117" /><tag k="addr:street" v="South Calumet Street" /></node><node id="-1265" lat="40.48475926570021" lon="-86.12431568618182" visible="true"><tag k="addr:housenumber" v="222" /><tag k="addr:street" v="South Purdum Street" /></node><node id="-1266" lat="40.49008313456979" lon="-86.12293023841207" visible="true"><tag k="addr:housenumber" v="416" /><tag k="addr:street" v="North Jay Street" /></node><node id="-1267" lat="40.4862573776353" lon="-86.12045421004379" visible="true"><tag k="addr:housenumber" v="1021" /><tag k="addr:street" v="East Sycamore Street" /></node><node id="-1268" lat="40.49175061803855" lon="-86.1181067771325" visible="true"><tag k="addr:housenumber" v="1127" /><tag k="addr:street" v="East Monroe Street" /></node><node id="-1269" lat="40.49132053966084" lon="-86.11834949354045" visible="true"><tag k="addr:housenumber" v="1122" /><tag k="addr:street" v="East Jefferson Street" /></node><node id="-1270" lat="40.488221553455745" lon="-86.11872479650658" visible="true"><tag k="addr:housenumber" v="1107" /><tag k="addr:street" v="East Mulberry Street" /></node><node id="-1271" lat="40.49007800256983" lon="-86.11364354351191" visible="true"><tag k="addr:housenumber" v="415" /><tag k="addr:street" v="North Calumet Street" /></node><node id="-1273" lat="40.49378169420029" lon="-86.12600300132073" visible="true"><tag k="addr:housenumber" v="901" /><tag k="addr:street" v="North Bell Street" /></node><node id="-1274" lat="40.48821107541765" lon="-86.11616596102458" visible="true"><tag k="addr:housenumber" v="1225" /><tag k="addr:street" v="East Mulberry Street" /></node><node id="-1275" lat="40.48793302419173" lon="-86.119054520131" visible="true"><tag k="addr:housenumber" v="204" /><tag k="addr:street" v="North Delphos Street" /></node><node id="-1276" lat="40.4953123812035" lon="-86.12409975418147" visible="true"><tag k="addr:housenumber" v="1030" /><tag k="addr:street" v="North Purdum Street" /></node><node id="-1278" lat="40.4936441115941" lon="-86.12531343959665" visible="true"><tag k="addr:housenumber" v="824" /><tag k="addr:street" v="North Bell Street" /></node><node id="-1279" lat="40.48680739625323" lon="-86.12387370164443" visible="true"><tag k="addr:housenumber" v="708" /><tag k="addr:street" v="East Sycamore Street" /></node><node id="-1280" lat="40.48920337414277" lon="-86.11721211000399" visible="true"><tag k="addr:housenumber" v="1201" /><tag k="addr:street" v="East Taylor Street" /></node><node id="-1281" lat="40.489162792360645" lon="-86.12267767772714" visible="true"><tag k="addr:housenumber" v="805" /><tag k="addr:street" v="East Taylor Street" /></node><node id="-1282" lat="40.48907728953805" lon="-86.12567616986789" visible="true"><tag k="addr:housenumber" v="527" /><tag k="addr:street" v="East Taylor Street" /></node><node id="-1283" lat="40.49213461161732" lon="-86.12356453657141" visible="true"><tag k="addr:housenumber" v="712" /><tag k="addr:street" v="East Monroe Street" /></node><node id="-1284" lat="40.49318895384826" lon="-86.1140332588944" visible="true"><tag k="addr:housenumber" v="1403" /><tag k="addr:street" v="East Madison Street" /></node><node id="-1285" lat="40.485855767248026" lon="-86.12338054487692" visible="true"><tag k="addr:housenumber" v="112" /><tag k="addr:street" v="South Jay St &amp; 1/2" /></node><node id="-1286" lat="40.48864781036284" lon="-86.12498598357182" visible="true"><tag k="addr:housenumber" v="612" /><tag k="addr:street" v="East Mulberry Street" /></node><node id="-1287" lat="40.48958129312412" lon="-86.12714120240595" visible="true"><tag k="addr:housenumber" v="400" /><tag k="addr:street" v="North Apperson   Way" /></node><node id="-1289" lat="40.48924073904273" lon="-86.11945812748002" visible="true"><tag k="addr:housenumber" v="1021" /><tag k="addr:street" v="East Taylor Street" /></node><node id="-1290" lat="40.488116787720735" lon="-86.12465797913298" visible="true"><tag k="addr:housenumber" v="617" /><tag k="addr:street" v="East Mulberry &amp; 619 Street" /></node><node id="-1291" lat="40.49153033872816" lon="-86.12345049190006" visible="true"><tag k="addr:housenumber" v="615" /><tag k="addr:street" v="North Jay Street" /></node><node id="-1292" lat="40.487150775461366" lon="-86.11815835542468" visible="true"><tag k="addr:housenumber" v="1122" /><tag k="addr:street" v="East Sycamore Street" /></node><node id="-1293" lat="40.485399042249185" lon="-86.12345894854693" visible="true"><tag k="addr:housenumber" v="801" /><tag k="addr:street" v="East Superior Street" /></node><node id="-1294" lat="40.490695447090886" lon="-86.12231823770541" visible="true"><tag k="addr:housenumber" v="823" /><tag k="addr:street" v="East Jefferson Street" /></node><node id="-1295" lat="40.49540450177608" lon="-86.12653084125226" visible="true"><tag k="addr:housenumber" v="1030" /><tag k="addr:street" v="North Apperson Way" /></node><node id="-1296" lat="40.48965386537644" lon="-86.12394471870888" visible="true"><tag k="addr:housenumber" v="706" /><tag k="addr:street" v="East Taylor Street" /></node><node id="-1297" lat="40.49420499327415" lon="-86.12125392330469" visible="true"><tag k="addr:housenumber" v="920" /><tag k="addr:street" v="East Richmond Street" /></node><node id="-1298" lat="40.485194000475396" lon="-86.12212912478843" visible="true"><tag k="addr:housenumber" v="214" /><tag k="addr:street" v="South Locke Street" /></node><node id="-1299" lat="40.49510282898338" lon="-86.11806553050438" visible="true"><tag k="addr:housenumber" v="1040" /><tag k="addr:street" v="East Havens Street" /></node><node id="-1300" lat="40.48623728566519" lon="-86.12390840821446" visible="true"><tag k="addr:housenumber" v="711" /><tag k="addr:street" v="East Sycamore Street" /></node><node id="-1301" lat="40.492347464911084" lon="-86.11446929432948" visible="true"><tag k="addr:housenumber" v="1400" /><tag k="addr:street" v="East Monroe Street" /></node><node id="-1302" lat="40.48822173223706" lon="-86.11843337184084" visible="true"><tag k="addr:housenumber" v="1109" /><tag k="addr:street" v="East Mulberry Street" /></node><node id="-1303" lat="40.49051482791254" lon="-86.1258558607544" visible="true"><tag k="addr:housenumber" v="522" /><tag k="addr:street" v="East Jackson Street" /></node><node id="-1305" lat="40.484530494309205" lon="-86.11297116564867" visible="true"><tag k="addr:housenumber" v="312" /><tag k="addr:street" v="South Calumet Street" /></node><node id="-1306" lat="40.49541888356033" lon="-86.12530862519887" visible="true"><tag k="addr:housenumber" v="1030" /><tag k="addr:street" v="North Bell Street" /></node><node id="-1308" lat="40.48762322028949" lon="-86.11149932101213" visible="true"><tag k="addr:housenumber" v="1599" /><tag k="addr:street" v="East Sycamore Street" /></node><node id="-1313" lat="40.488440485449054" lon="-86.10822485169994" visible="true"><tag k="addr:housenumber" v="122" /><tag k="addr:street" v="Creekside Drive" /></node><node id="-1314" lat="40.48997150343736" lon="-86.12572581926293" visible="true"><tag k="addr:housenumber" v="415" /><tag k="addr:street" v="North Bell Street" /></node><node id="-1315" lat="40.490061784057225" lon="-86.11914469004364" visible="true"><tag k="addr:housenumber" v="410" /><tag k="addr:street" v="North Delphos Street" /></node><node id="-1316" lat="40.48544208532146" lon="-86.12384710904146" visible="true"><tag k="addr:housenumber" v="715" /><tag k="addr:street" v="East Superior Street" /></node><node id="-1317" lat="40.49461011747737" lon="-86.12006980961765" visible="true"><tag k="addr:housenumber" v="955" /><tag k="addr:street" v="East Havens Street" /></node><node id="-1319" lat="40.492283214262365" lon="-86.11950762814358" visible="true"><tag k="addr:housenumber" v="705" /><tag k="addr:street" v="North Delphos" /></node><node id="-1321" lat="40.488191991932624" lon="-86.12098980280174" visible="true"><tag k="addr:housenumber" v="927" /><tag k="addr:street" v="East Mulberry Street" /></node><node id="-1322" lat="40.48920567541183" lon="-86.11706536770893" visible="true"><tag k="addr:housenumber" v="1205" /><tag k="addr:street" v="East Taylor Street" /></node><node id="-1323" lat="40.48703967229242" lon="-86.11973702077657" visible="true"><tag k="addr:housenumber" v="1020" /><tag k="addr:street" v="East Sycamore Street" /></node><node id="-1324" lat="40.48865463481934" lon="-86.1244830421841" visible="true"><tag k="addr:housenumber" v="624" /><tag k="addr:street" v="East Mulberry Street" /></node><node id="-1325" lat="40.49214104064305" lon="-86.12299334367749" visible="true"><tag k="addr:housenumber" v="800" /><tag k="addr:street" v="East Monroe Street" /></node><node id="-1326" lat="40.485289257267745" lon="-86.11176667916767" visible="true"><tag k="addr:housenumber" v="216" /><tag k="addr:street" v="South Cooper Street" /></node><node id="-1327" lat="40.49141215174405" lon="-86.11206189922167" visible="true"><tag k="addr:housenumber" v="1410" /><tag k="addr:street" v="East Jefferson Street" /></node><node id="-1328" lat="40.48864527404794" lon="-86.12516522344717" visible="true"><tag k="addr:housenumber" v="608" /><tag k="addr:street" v="East Mulberry Street" /></node><node id="-1330" lat="40.48876476447131" lon="-86.12082281831705" visible="true"><tag k="addr:housenumber" v="930" /><tag k="addr:street" v="East Mulberry Street" /></node><node id="-1331" lat="40.487225429803196" lon="-86.11416290008134" visible="true"><tag k="addr:housenumber" v="104" /><tag k="addr:street" v="South Elizabeth Street" /></node><node id="-1332" lat="40.49225800781893" lon="-86.10999788793102" visible="true"><tag k="addr:housenumber" v="1516" /><tag k="addr:street" v="East Jefferson Street" /></node><node id="-1333" lat="40.48571196803882" lon="-86.11371450340972" visible="true"><tag k="addr:housenumber" v="205" /><tag k="addr:street" v="South Calumet Street" /></node><node id="-1334" lat="40.49507716289247" lon="-86.1200677578953" visible="true"><tag k="addr:housenumber" v="944" /><tag k="addr:street" v="East Havens Street" /></node><node id="-1335" lat="40.49452514269815" lon="-86.12638026167294" visible="true"><tag k="addr:housenumber" v="510" /><tag k="addr:street" v="East Havens Street" /></node><node id="-1336" lat="40.486298998382246" lon="-86.12225246390275" visible="true"><tag k="addr:housenumber" v="901" /><tag k="addr:street" v="East Sycamore Street" /></node><node id="-1337" lat="40.4916378337315" lon="-86.12654019996096" visible="true"><tag k="addr:housenumber" v="620" /><tag k="addr:street" v="North Apperson Way" /></node><node id="-1338" lat="40.490131836412786" lon="-86.11713111556983" visible="true"><tag k="addr:housenumber" v="408" /><tag k="addr:street" v="North Ohio Avenue" /></node><node id="-1340" lat="40.49074404396254" lon="-86.10905033643701" visible="true"><tag k="addr:housenumber" v="1607" /><tag k="addr:street" v="East Jefferson Street" /></node><node id="-1341" lat="40.4847401550209" lon="-86.1129706489976" visible="true"><tag k="addr:housenumber" v="306" /><tag k="addr:street" v="South Calumet Street" /></node><node id="-1342" lat="40.49527061416953" lon="-86.12530903584553" visible="true"><tag k="addr:housenumber" v="1026" /><tag k="addr:street" v="North Bell Street" /></node><node id="-1343" lat="40.48572978902649" lon="-86.11176416074282" visible="true"><tag k="addr:housenumber" v="204" /><tag k="addr:street" v="South Cooper Street" /></node><node id="-1345" lat="40.48925180972212" lon="-86.1141312753281" visible="true"><tag k="addr:housenumber" v="1337" /><tag k="addr:street" v="East Taylor Street" /></node><node id="-1347" lat="40.48899988092158" lon="-86.11364843459403" visible="true"><tag k="addr:housenumber" v="315" /><tag k="addr:street" v="North Calumet Street" /></node><node id="-1348" lat="40.49265689879106" lon="-86.11972065227559" visible="true"><tag k="addr:housenumber" v="715" /><tag k="addr:street" v="North Waugh Street" /></node><node id="-1349" lat="40.48578041135463" lon="-86.1245998367221" visible="true"><tag k="addr:housenumber" v="622" /><tag k="addr:street" v="East Superior Street" /></node><node id="-1350" lat="40.48874140543326" lon="-86.1191150776733" visible="true"><tag k="addr:housenumber" v="1100" /><tag k="addr:street" v="East Mulberry Street" /></node><node id="-1351" lat="40.48540786478702" lon="-86.12322337168712" visible="true"><tag k="addr:housenumber" v="805" /><tag k="addr:street" v="East Superior Street" /></node><node id="-1352" lat="40.48968084345328" lon="-86.12266759420145" visible="true"><tag k="addr:housenumber" v="804" /><tag k="addr:street" v="East Taylor Street" /></node><node id="-1353" lat="40.48695026329646" lon="-86.12094488287767" visible="true"><tag k="addr:housenumber" v="924" /><tag k="addr:street" v="East Sycamore Street" /></node><node id="-1355" lat="40.49509848927875" lon="-86.11840342957878" visible="true"><tag k="addr:housenumber" v="1030" /><tag k="addr:street" v="East Havens Street" /></node><node id="-1356" lat="40.48951383263066" lon="-86.12575523773023" visible="true"><tag k="addr:housenumber" v="522" /><tag k="addr:street" v="East Taylor Street" /></node><node id="-1357" lat="40.4862839248326" lon="-86.12287276551652" visible="true"><tag k="addr:housenumber" v="813" /><tag k="addr:street" v="East Sycamore Street" /></node><node id="-1358" lat="40.48976026504144" lon="-86.11442281330947" visible="true"><tag k="addr:housenumber" v="1328" /><tag k="addr:street" v="East Taylor Street" /></node><node id="-1359" lat="40.490756527133456" lon="-86.117737041806" visible="true"><tag k="addr:housenumber" v="1135" /><tag k="addr:street" v="East Jefferson Street" /></node><node id="-1361" lat="40.487665545093236" lon="-86.1161432472144" visible="true"><tag k="addr:housenumber" v="1230" /><tag k="addr:street" v="East Sycamore Street" /></node><node id="-1363" lat="40.488250001708856" lon="-86.12240264861204" visible="true"><tag k="addr:housenumber" v="817" /><tag k="addr:street" v="East Mulberry Street" /></node><node id="-1364" lat="40.48920114294191" lon="-86.11787550663976" visible="true"><tag k="addr:housenumber" v="1131" /><tag k="addr:street" v="East Taylor Street" /></node><node id="-1365" lat="40.48923824794013" lon="-86.12043623206594" visible="true"><tag k="addr:housenumber" v="943" /><tag k="addr:street" v="East Taylor Street" /></node><node id="-1366" lat="40.49486620012234" lon="-86.12410109265609" visible="true"><tag k="addr:housenumber" v="1010" /><tag k="addr:street" v="North Purdum Street" /></node><node id="-1367" lat="40.49349861461269" lon="-86.12531383318111" visible="true"><tag k="addr:housenumber" v="818" /><tag k="addr:street" v="North Bell Street" /></node><node id="-1368" lat="40.49376326203115" lon="-86.11925420884477" visible="true"><tag k="addr:housenumber" v="1011" /><tag k="addr:street" v="East Richmond Street" /></node><node id="-1369" lat="40.48528276873601" lon="-86.11242465276214" visible="true"><tag k="addr:housenumber" v="217" /><tag k="addr:street" v="South Cooper Street" /></node><node id="-1370" lat="40.49120941833896" lon="-86.12589106585907" visible="true"><tag k="addr:housenumber" v="601" /><tag k="addr:street" v="North Bell Street" /></node><node id="-1371" lat="40.49163554947563" lon="-86.11120970962135" visible="true"><tag k="addr:housenumber" v="1470" /><tag k="addr:street" v="East Jefferson Street" /></node><node id="-1372" lat="40.49507500392629" lon="-86.12023671636415" visible="true"><tag k="addr:housenumber" v="942" /><tag k="addr:street" v="East Havens Street" /></node><node id="-1374" lat="40.48415267614687" lon="-86.112623815648" visible="true"><tag k="addr:housenumber" v="1514" /><tag k="addr:street" v="East Carter Street" /></node><node id="-1375" lat="40.49009412436708" lon="-86.11251127874382" visible="true"><tag k="addr:housenumber" v="416" /><tag k="addr:street" v="North Calumet Street" /></node><node id="-1376" lat="40.49236515672359" lon="-86.11318856560186" visible="true"><tag k="addr:housenumber" v="1432" /><tag k="addr:street" v="East Monroe Street" /></node><node id="-1377" lat="40.48767274969486" lon="-86.12417962514843" visible="true"><tag k="addr:housenumber" v="700" /><tag k="addr:street" v="East Walnut Street" /></node><node id="-1378" lat="40.48890913630161" lon="-86.10878423101904" visible="true"><tag k="addr:housenumber" v="1641" /><tag k="addr:street" v="East Sycamore Street" /></node><node id="-1379" lat="40.48537714674443" lon="-86.11420570058915" visible="true"><tag k="addr:housenumber" v="214" /><tag k="addr:street" v="South Elizabeth Street" /></node><node id="-1380" lat="40.490870977449774" lon="-86.10987230721634" visible="true"><tag k="addr:housenumber" v="1517" /><tag k="addr:street" v="East Jefferson Street" /></node><node id="-1381" lat="40.48534462527373" lon="-86.12472084968925" visible="true"><tag k="addr:housenumber" v="619" /><tag k="addr:street" v="East Superior Street" /></node><node id="-1382" lat="40.49128288347839" lon="-86.12174900434228" visible="true"><tag k="addr:housenumber" v="906" /><tag k="addr:street" v="East Jefferson Street" /></node><node id="-1383" lat="40.48619330987766" lon="-86.12594074910324" visible="true"><tag k="addr:housenumber" v="519" /><tag k="addr:street" v="East Sycamore Street" /></node><node id="-1384" lat="40.49226839300065" lon="-86.10924346079926" visible="true"><tag k="addr:housenumber" v="1600" /><tag k="addr:street" v="East Jefferson Street" /></node><node id="-1385" lat="40.48876378983463" lon="-86.11354163624308" visible="true"><tag k="addr:housenumber" v="1424" /><tag k="addr:street" v="East Mulberry Street" /></node><node id="-1386" lat="40.487381470269824" lon="-86.11982856863312" visible="true"><tag k="addr:housenumber" v="1009" /><tag k="addr:street" v="East Walnut Street" /></node><node id="-1387" lat="40.48922641389708" lon="-86.11574616081018" visible="true"><tag k="addr:housenumber" v="1241" /><tag k="addr:street" v="East Taylor Street" /></node><node id="-1388" lat="40.49459718815053" lon="-86.12108337361857" visible="true"><tag k="addr:housenumber" v="919" /><tag k="addr:street" v="East Havens Street" /></node><node id="-1389" lat="40.48538500686353" lon="-86.12426955183034" visible="true"><tag k="addr:housenumber" v="208" /><tag k="addr:street" v="South Purdum Street" /></node><node id="-1390" lat="40.490102938400206" lon="-86.12217892156555" visible="true"><tag k="addr:housenumber" v="823" /><tag k="addr:street" v="East Jackson Street" /></node><node id="-1391" lat="40.49481846580375" lon="-86.12653226947236" visible="true"><tag k="addr:housenumber" v="1010" /><tag k="addr:street" v="North Apperson Way" /></node><node id="-1392" lat="40.49212263774996" lon="-86.12462712823499" visible="true"><tag k="addr:housenumber" v="620" /><tag k="addr:street" v="East Monroe Street" /></node><node id="-1393" lat="40.48733646571857" lon="-86.12101396098296" visible="true"><tag k="addr:housenumber" v="923" /><tag k="addr:street" v="East Walnut Street" /></node><node id="-1394" lat="40.48634210259372" lon="-86.1217172492486" visible="true"><tag k="addr:housenumber" v="919" /><tag k="addr:street" v="East Sycamore Street" /></node><node id="-1396" lat="40.49131211265001" lon="-86.11911091461613" visible="true"><tag k="addr:housenumber" v="1100" /><tag k="addr:street" v="East Jefferson Street" /></node><node id="-1398" lat="40.48973902790183" lon="-86.11574707913425" visible="true"><tag k="addr:housenumber" v="1240" /><tag k="addr:street" v="East Taylor Street" /></node><node id="-1399" lat="40.49305959006714" lon="-86.12355686012447" visible="true"><tag k="addr:housenumber" v="807" /><tag k="addr:street" v="North Jay St &amp; 809 811 813" /></node><node id="-1400" lat="40.49048788690611" lon="-86.11581110604823" visible="true"><tag k="addr:housenumber" v="1245" /><tag k="addr:street" v="East Jefferson Street" /></node><node id="-1401" lat="40.494686241682" lon="-86.11703526145392" visible="true"><tag k="addr:housenumber" v="820" /><tag k="addr:street" v="North Ohio Avenue" /></node><node id="-1403" lat="40.48965838820282" lon="-86.12463955201822" visible="true"><tag k="addr:housenumber" v="407" /><tag k="addr:street" v="North Purdum Street" /></node><node id="-1405" lat="40.48972493186197" lon="-86.11662592021578" visible="true"><tag k="addr:housenumber" v="1216" /><tag k="addr:street" v="East Taylor Street" /></node><node id="-1406" lat="40.4874208127874" lon="-86.11875075733164" visible="true"><tag k="addr:housenumber" v="1115" /><tag k="addr:street" v="East Walnut Street" /></node><node id="-1408" lat="40.491668678360575" lon="-86.12421861013365" visible="true"><tag k="addr:housenumber" v="701" /><tag k="addr:street" v="East Monroe Street" /></node><node id="-1409" lat="40.48716135774725" lon="-86.12633003147958" visible="true"><tag k="addr:housenumber" v="511" /><tag k="addr:street" v="East Walnut Street" /></node><node id="-1410" lat="40.49130569555808" lon="-86.11969096352315" visible="true"><tag k="addr:housenumber" v="1016" /><tag k="addr:street" v="East Jefferson Street" /></node><node id="-1415" lat="40.48777280723531" lon="-86.12292208736442" visible="true"><tag k="addr:housenumber" v="804" /><tag k="addr:street" v="East Walnut Street" /></node><node id="-1416" lat="40.48878114658305" lon="-86.1198906351052" visible="true"><tag k="addr:housenumber" v="1010" /><tag k="addr:street" v="East Mulberry Street" /></node><node id="-1417" lat="40.49123253781985" lon="-86.12380171548583" visible="true"><tag k="addr:housenumber" v="712" /><tag k="addr:street" v="East Jefferson Street" /></node><node id="-1418" lat="40.48742028518906" lon="-86.11792349310356" visible="true"><tag k="addr:housenumber" v="1129" /><tag k="addr:street" v="East Walnut Street" /></node><node id="-1419" lat="40.49375087201951" lon="-86.12023709444823" visible="true"><tag k="addr:housenumber" v="941" /><tag k="addr:street" v="East Richmond Street" /></node><node id="-1420" lat="40.491689082779025" lon="-86.12240646563188" visible="true"><tag k="addr:housenumber" v="617" /><tag k="addr:street" v="North Locke Street" /></node><node id="-1421" lat="40.48971902908667" lon="-86.11989282802632" visible="true"><tag k="addr:housenumber" v="1010" /><tag k="addr:street" v="East Taylor Street" /></node><node id="-1422" lat="40.48595847621734" lon="-86.12139475139752" visible="true"><tag k="addr:housenumber" v="920" /><tag k="addr:street" v="East Superior Street" /></node><node id="-1423" lat="40.49174338980087" lon="-86.11875513660618" visible="true"><tag k="addr:housenumber" v="1111" /><tag k="addr:street" v="East Monroe Street" /></node><node id="-1424" lat="40.48719725786759" lon="-86.12398876700198" visible="true"><tag k="addr:housenumber" v="705" /><tag k="addr:street" v="East Walnut St &amp; 707" /></node><node id="-1426" lat="40.4882233418326" lon="-86.11762410599144" visible="true"><tag k="addr:housenumber" v="1141" /><tag k="addr:street" v="East Mulberry Street" /></node><node id="-1428" lat="40.49047213660993" lon="-86.11364306657661" visible="true"><tag k="addr:housenumber" v="427" /><tag k="addr:street" v="North Calumet Street" /></node><node id="-1429" lat="40.494230362709466" lon="-86.11925207989901" visible="true"><tag k="addr:housenumber" v="1010" /><tag k="addr:street" v="East Richmond Street" /></node><node id="-1430" lat="40.48748120369047" lon="-86.11409117100449" visible="true"><tag k="addr:housenumber" v="1261" /><tag k="addr:street" v="East Sycamore Street" /></node><node id="-1434" lat="40.48877652873747" lon="-86.1151743986718" visible="true"><tag k="addr:housenumber" v="1302" /><tag k="addr:street" v="East Mulberry Street" /></node><node id="-1435" lat="40.48585019991729" lon="-86.1242017087487" visible="true"><tag k="addr:housenumber" v="708" /><tag k="addr:street" v="East Superior Street" /></node><node id="-1436" lat="40.492275140253675" lon="-86.12022611522039" visible="true"><tag k="addr:housenumber" v="1002" /><tag k="addr:street" v="East Monroe Street" /></node><node id="-1437" lat="40.48821085035097" lon="-86.1202454754136" visible="true"><tag k="addr:housenumber" v="941" /><tag k="addr:street" v="East Mulberry Street" /></node><node id="-1438" lat="40.48308806387126" lon="-86.1093858052487" visible="true"><tag k="addr:housenumber" v="537" /><tag k="addr:street" v="South Reed Road" /></node><node id="-1439" lat="40.48921491839928" lon="-86.11647875820081" visible="true"><tag k="addr:housenumber" v="1221" /><tag k="addr:street" v="East Taylor Street" /></node><node id="-1440" lat="40.48965603902814" lon="-86.12381158288973" visible="true"><tag k="addr:housenumber" v="708" /><tag k="addr:street" v="East Taylor Street" /></node><node id="-1441" lat="40.49262416964298" lon="-86.12156788575741" visible="true"><tag k="addr:housenumber" v="913" /><tag k="addr:street" v="East Madison Street" /></node><node id="-1442" lat="40.48973433363038" lon="-86.11604025992598" visible="true"><tag k="addr:housenumber" v="1232" /><tag k="addr:street" v="East Taylor Street" /></node><node id="-1443" lat="40.49275571813316" lon="-86.11435986681838" visible="true"><tag k="addr:housenumber" v="1403" /><tag k="addr:street" v="East Madison Street" /></node><node id="-1445" lat="40.48874818457055" lon="-86.12155580683672" visible="true"><tag k="addr:housenumber" v="908" /><tag k="addr:street" v="East Mulberry Street" /></node><node id="-1446" lat="40.491841380282146" lon="-86.11291162909184" visible="true"><tag k="addr:housenumber" v="1441" /><tag k="addr:street" v="East Monroe Street" /></node><node id="-1447" lat="40.49120463897709" lon="-86.12062877714033" visible="true"><tag k="addr:housenumber" v="934" /><tag k="addr:street" v="East Jefferson Street" /></node><node id="-1448" lat="40.49047228453164" lon="-86.11678410792005" visible="true"><tag k="addr:housenumber" v="1211" /><tag k="addr:street" v="East Jefferson Street" /></node><node id="-1449" lat="40.4917079702498" lon="-86.12193229182259" visible="true"><tag k="addr:housenumber" v="901" /><tag k="addr:street" v="East Monroe Street" /></node><node id="-1450" lat="40.484995651167175" lon="-86.12337419357391" visible="true"><tag k="addr:housenumber" v="222" /><tag k="addr:street" v="South Jay Street" /></node><node id="-1451" lat="40.48772424952016" lon="-86.12484016100606" visible="true"><tag k="addr:housenumber" v="610" /><tag k="addr:street" v="East Walnut Street" /></node><node id="-1452" lat="40.494213564372515" lon="-86.12057824161846" visible="true"><tag k="addr:housenumber" v="928" /><tag k="addr:street" v="East Richmond Street" /></node><node id="-1453" lat="40.49073275154" lon="-86.11859539136701" visible="true"><tag k="addr:housenumber" v="1115" /><tag k="addr:street" v="East Jefferson Street" /></node><node id="-1454" lat="40.49299717731096" lon="-86.1271032498802" visible="true"><tag k="addr:housenumber" v="420" /><tag k="addr:street" v="East Madison Street" /></node><node id="-1455" lat="40.49052305131193" lon="-86.1252296139174" visible="true"><tag k="addr:housenumber" v="604" /><tag k="addr:street" v="East Jackson Street" /></node><node id="-1457" lat="40.49377390882783" lon="-86.11840970132906" visible="true"><tag k="addr:housenumber" v="1037" /><tag k="addr:street" v="East Richmond Street" /></node><node id="-1458" lat="40.489944773556346" lon="-86.10853696701572" visible="true"><tag k="addr:housenumber" v="1636" /><tag k="addr:street" v="East Sycamore Street" /></node><node id="-1460" lat="40.48675347201121" lon="-86.1255359654342" visible="true"><tag k="addr:housenumber" v="530" /><tag k="addr:street" v="East Sycamore Street" /></node><node id="-1461" lat="40.488115119120195" lon="-86.12481926558166" visible="true"><tag k="addr:housenumber" v="615" /><tag k="addr:street" v="East Mulberry Street" /></node><node id="-1462" lat="40.49249941181796" lon="-86.12287368902157" visible="true"><tag k="addr:housenumber" v="712" /><tag k="addr:street" v="North Jay Street" /></node><node id="-1464" lat="40.48919261857279" lon="-86.1189397840766" visible="true"><tag k="addr:housenumber" v="1107" /><tag k="addr:street" v="East Taylor Street" /></node><node id="-1465" lat="40.494616380427736" lon="-86.11640153188091" visible="true"><tag k="addr:housenumber" v="800" /><tag k="addr:street" v="North Ohio Avenue" /></node><node id="-1468" lat="40.49343004589428" lon="-86.12410530818424" visible="true"><tag k="addr:housenumber" v="816" /><tag k="addr:street" v="North Purdum Street" /></node><node id="-1469" lat="40.486917332999354" lon="-86.12160555125445" visible="true"><tag k="addr:housenumber" v="908" /><tag k="addr:street" v="East Sycamore Street" /></node><node id="-1470" lat="40.48427429329534" lon="-86.12239389738333" visible="true"><tag k="addr:housenumber" v="909" /><tag k="addr:street" v="East Carter Street" /></node><node id="-1472" lat="40.490087246790594" lon="-86.12481887011768" visible="true"><tag k="addr:housenumber" v="617" /><tag k="addr:street" v="East Jackson Street" /></node><node id="-1473" lat="40.48916051395749" lon="-86.12461110874418" visible="true"><tag k="addr:housenumber" v="621" /><tag k="addr:street" v="East Taylor Street" /></node><node id="-1475" lat="40.491269153764335" lon="-86.11777687717813" visible="true"><tag k="addr:housenumber" v="1138" /><tag k="addr:street" v="East Jefferson Street" /></node><node id="-1476" lat="40.486036041400745" lon="-86.11420247349461" visible="true"><tag k="addr:housenumber" v="150" /><tag k="addr:street" v="South Elizabeth Street" /></node><node id="-1477" lat="40.49454375330428" lon="-86.12477998501836" visible="true"><tag k="addr:housenumber" v="1001" /><tag k="addr:street" v="North Purdum Street" /></node><node id="-1478" lat="40.48739896126436" lon="-86.11704000292852" visible="true"><tag k="addr:housenumber" v="100" /><tag k="addr:street" v="North Ohio Avenue" /></node><node id="-1479" lat="40.49079150915475" lon="-86.12522890659282" visible="true"><tag k="addr:housenumber" v="607" /><tag k="addr:street" v="East Jefferson Street" /></node><node id="-1481" lat="40.48848315936452" lon="-86.11213771816226" visible="true"><tag k="addr:housenumber" v="1600" /><tag k="addr:street" v="East Sycamore Street" /></node><node id="-1482" lat="40.487280955861436" lon="-86.12189471869263" visible="true"><tag k="addr:housenumber" v="831" /><tag k="addr:street" v="East Walnut Street" /></node><node id="-1483" lat="40.48875658277163" lon="-86.11647855626795" visible="true"><tag k="addr:housenumber" v="1218" /><tag k="addr:street" v="East Mulberry Street" /></node><node id="-1484" lat="40.48575859121327" lon="-86.12503900416345" visible="true"><tag k="addr:housenumber" v="612" /><tag k="addr:street" v="East Superior Street" /></node><node id="-1487" lat="40.49272323881008" lon="-86.11122567834742" visible="true"><tag k="addr:housenumber" v="1470" /><tag k="addr:street" v="East Jefferson Street" /></node><node id="-1488" lat="40.4882114914397" lon="-86.11996313176407" visible="true"><tag k="addr:housenumber" v="1005" /><tag k="addr:street" v="East Mulberry Street" /></node><node id="-1489" lat="40.49506635207974" lon="-86.12091249608397" visible="true"><tag k="addr:housenumber" v="932" /><tag k="addr:street" v="East Havens Street" /></node><node id="-1490" lat="40.486410366630594" lon="-86.12088753205644" visible="true"><tag k="addr:housenumber" v="1009" /><tag k="addr:street" v="East Sycamore St &amp; 1/2" /></node><node id="-1491" lat="40.49111161075814" lon="-86.12654133555337" visible="true"><tag k="addr:housenumber" v="502" /><tag k="addr:street" v="East Jefferson Street" /></node><node id="-1492" lat="40.49452238728459" lon="-86.12661745748076" visible="true"><tag k="addr:housenumber" v="1002" /><tag k="addr:street" v="North Apperson Way" /></node><node id="-1493" lat="40.489676402356785" lon="-86.11300120942687" visible="true"><tag k="addr:housenumber" v="400" /><tag k="addr:street" v="North Calumet Street" /></node><node id="-1497" lat="40.4854744595809" lon="-86.1098270297754" visible="true"><tag k="addr:housenumber" v="1617" /><tag k="addr:street" v="East Sycamore Street" /></node><node id="-1498" lat="40.485816825605625" lon="-86.11420369575707" visible="true"><tag k="addr:housenumber" v="200" /><tag k="addr:street" v="South Elizabeth Street" /></node><node id="-1499" lat="40.49173098586006" lon="-86.11986868460383" visible="true"><tag k="addr:housenumber" v="1011" /><tag k="addr:street" v="East Monroe Street" /></node><node id="-1500" lat="40.4908674366418" lon="-86.11014060332118" visible="true"><tag k="addr:housenumber" v="1515" /><tag k="addr:street" v="East Jefferson Street" /></node><node id="-1501" lat="40.48872917786967" lon="-86.11456938635096" visible="true"><tag k="addr:housenumber" v="1328" /><tag k="addr:street" v="East Mulberry St &amp; 1/2" /></node><node id="-1503" lat="40.4872185302193" lon="-86.12328782447601" visible="true"><tag k="addr:housenumber" v="725" /><tag k="addr:street" v="East Walnut Street" /></node><node id="-1504" lat="40.48923561925401" lon="-86.11516044948351" visible="true"><tag k="addr:housenumber" v="1309" /><tag k="addr:street" v="East Taylor Street" /></node><node id="-1505" lat="40.48970235578092" lon="-86.12200822425162" visible="true"><tag k="addr:housenumber" v="824" /><tag k="addr:street" v="East Taylor Street" /></node><node id="-1507" lat="40.492271380883125" lon="-86.12531714444482" visible="true"><tag k="addr:housenumber" v="708" /><tag k="addr:street" v="North Bell Street" /></node><node id="-1508" lat="40.486901189076356" lon="-86.1218260925141" visible="true"><tag k="addr:housenumber" v="904" /><tag k="addr:street" v="East Sycamore Street" /></node><node id="-1509" lat="40.488222151541855" lon="-86.11537825747457" visible="true"><tag k="addr:housenumber" v="1245" /><tag k="addr:street" v="East Mulberry Street" /></node><node id="-1510" lat="40.494637773856745" lon="-86.11789883528922" visible="true"><tag k="addr:housenumber" v="1043" /><tag k="addr:street" v="East Havens Street" /></node><node id="-1512" lat="40.49229114371462" lon="-86.12356403426517" visible="true"><tag k="addr:housenumber" v="711" /><tag k="addr:street" v="North Jay Street" /></node><node id="-1513" lat="40.48976732683029" lon="-86.11398143300411" visible="true"><tag k="addr:housenumber" v="1340" /><tag k="addr:street" v="East Taylor Street" /></node><node id="-1515" lat="40.49051379203798" lon="-86.11410746149559" visible="true"><tag k="addr:housenumber" v="1307" /><tag k="addr:street" v="East Jefferson Street" /></node><node id="-1516" lat="40.49138045914826" lon="-86.11533047954117" visible="true"><tag k="addr:housenumber" v="1248" /><tag k="addr:street" v="East Jefferson Street" /></node><node id="-1517" lat="40.487152117240335" lon="-86.12670697167918" visible="true"><tag k="addr:housenumber" v="415" /><tag k="addr:street" v="East Walnut Street" /></node><node id="-1518" lat="40.48954509316527" lon="-86.12516857895065" visible="true"><tag k="addr:housenumber" v="608" /><tag k="addr:street" v="East Taylor Street" /></node><node id="-1519" lat="40.49210818519533" lon="-86.12591389339462" visible="true"><tag k="addr:housenumber" v="520" /><tag k="addr:street" v="East Monroe Street" /></node><node id="-1522" lat="40.4857182201095" lon="-86.11296684557988" visible="true"><tag k="addr:housenumber" v="204" /><tag k="addr:street" v="South Calumet Street" /></node><node id="-1523" lat="40.494536707708086" lon="-86.12410207302092" visible="true"><tag k="addr:housenumber" v="1000" /><tag k="addr:street" v="North Purdum Street" /></node><node id="-1524" lat="40.489715523833034" lon="-86.1172124251805" visible="true"><tag k="addr:housenumber" v="1200" /><tag k="addr:street" v="East Taylor Street" /></node><node id="-1525" lat="40.48783714006286" lon="-86.11777374534414" visible="true"><tag k="addr:housenumber" v="1122" /><tag k="addr:street" v="East Walnut Street" /></node><node id="-1527" lat="40.48806974006939" lon="-86.12688548351383" visible="true"><tag k="addr:housenumber" v="415" /><tag k="addr:street" v="East Mulberry Street" /></node><node id="-1528" lat="40.48783030533321" lon="-86.12133880943648" visible="true"><tag k="addr:housenumber" v="914" /><tag k="addr:street" v="East Walnut Street" /></node><node id="-1529" lat="40.485771943106755" lon="-86.12572425870927" visible="true"><tag k="addr:housenumber" v="526" /><tag k="addr:street" v="East Superior Street" /></node><node id="-1530" lat="40.49086550605459" lon="-86.12335886912926" visible="true"><tag k="addr:housenumber" v="723" /><tag k="addr:street" v="East Jefferson Street" /></node><node id="-1531" lat="40.492770582358" lon="-86.11328139046705" visible="true"><tag k="addr:housenumber" v="1431" /><tag k="addr:street" v="East Madison Street" /></node><node id="-1533" lat="40.48973468427145" lon="-86.11952639580028" visible="true"><tag k="addr:housenumber" v="1018" /><tag k="addr:street" v="East Taylor Street" /></node><node id="-1534" lat="40.4878599458076" lon="-86.10934380126164" visible="true"><tag k="addr:housenumber" v="1621" /><tag k="addr:street" v="East Sycamore Street" /></node><node id="-1535" lat="40.48874006158504" lon="-86.12203276505" visible="true"><tag k="addr:housenumber" v="902" /><tag k="addr:street" v="East Mulberry Street" /></node><node id="-1536" lat="40.48719009461936" lon="-86.1175999353809" visible="true"><tag k="addr:housenumber" v="1140" /><tag k="addr:street" v="East Sycamore Street" /></node><node id="-1537" lat="40.491244528893404" lon="-86.12272240146666" visible="true"><tag k="addr:housenumber" v="806" /><tag k="addr:street" v="East Jefferson Street" /></node><node id="-1539" lat="40.48736233647105" lon="-86.12038518349142" visible="true"><tag k="addr:housenumber" v="935" /><tag k="addr:street" v="East Walnut Street" /></node><node id="-1540" lat="40.49458860014223" lon="-86.12175911289961" visible="true"><tag k="addr:housenumber" v="907" /><tag k="addr:street" v="East Havens Street" /></node><node id="-1541" lat="40.490212783490165" lon="-86.122932338883" visible="true"><tag k="addr:housenumber" v="420" /><tag k="addr:street" v="North Jay Street" /></node><node id="-1543" lat="40.491318450656756" lon="-86.11853981748813" visible="true"><tag k="addr:housenumber" v="1114" /><tag k="addr:street" v="East Jefferson Street" /></node><node id="-1544" lat="40.48979182761964" lon="-86.11349833729713" visible="true"><tag k="addr:housenumber" v="1426" /><tag k="addr:street" v="East Taylor Street" /></node><node id="-1545" lat="40.4861976840361" lon="-86.12654922797502" visible="true"><tag k="addr:housenumber" v="417" /><tag k="addr:street" v="East Sycamore Street" /></node><node id="-1546" lat="40.48793313467768" lon="-86.11889653105449" visible="true"><tag k="addr:housenumber" v="204" /><tag k="addr:street" v="North Delphos Street" /></node><node id="-1548" lat="40.49264212609907" lon="-86.12409467232486" visible="true"><tag k="addr:housenumber" v="718" /><tag k="addr:street" v="North Purdum Street" /></node><node id="-1549" lat="40.49378962229616" lon="-86.12531304610687" visible="true"><tag k="addr:housenumber" v="902" /><tag k="addr:street" v="North Bell Street" /></node><node id="-1550" lat="40.486797245749635" lon="-86.12405261534784" visible="true"><tag k="addr:housenumber" v="702" /><tag k="addr:street" v="East Sycamore Street" /></node><node id="-1551" lat="40.49464211223694" lon="-86.1175573789062" visible="true"><tag k="addr:housenumber" v="1055" /><tag k="addr:street" v="East Havens Street" /></node><node id="-1552" lat="40.48916969271122" lon="-86.12238271723155" visible="true"><tag k="addr:housenumber" v="817" /><tag k="addr:street" v="East Taylor Street" /></node><node id="-1553" lat="40.48908167750878" lon="-86.12549742683166" visible="true"><tag k="addr:housenumber" v="531" /><tag k="addr:street" v="East Taylor Street" /></node><node id="-1554" lat="40.48534345753791" lon="-86.122565529533" visible="true"><tag k="addr:housenumber" v="211" /><tag k="addr:street" v="South Locke Street" /></node><node id="-1556" lat="40.49319553263011" lon="-86.11364896664635" visible="true"><tag k="addr:housenumber" v="1422" /><tag k="addr:street" v="East Madison Street" /></node><node id="-1557" lat="40.48906377392564" lon="-86.12629007140838" visible="true"><tag k="addr:housenumber" v="517" /><tag k="addr:street" v="East Taylor Street" /></node><node id="-1558" lat="40.48969755340405" lon="-86.12522234112843" visible="true"><tag k="addr:housenumber" v="406" /><tag k="addr:street" v="North Bell St &amp; 408" /></node><node id="-1559" lat="40.48887226581928" lon="-86.1130063800362" visible="true"><tag k="addr:housenumber" v="302" /><tag k="addr:street" v="North Calumet Street" /></node><node id="-1560" lat="40.4890001799275" lon="-86.11972239583844" visible="true"><tag k="addr:housenumber" v="315" /><tag k="addr:street" v="North Delphos Street" /></node><node id="-1561" lat="40.49171003016957" lon="-86.12174728784942" visible="true"><tag k="addr:housenumber" v="907" /><tag k="addr:street" v="East Monroe Street" /></node><node id="-1562" lat="40.491406715422556" lon="-86.11344190531078" visible="true"><tag k="addr:housenumber" v="1374" /><tag k="addr:street" v="East Jefferson Street" /></node><node id="-1563" lat="40.48714351665568" lon="-86.11833358732495" visible="true"><tag k="addr:housenumber" v="1118" /><tag k="addr:street" v="East Sycamore Street" /></node><node id="-1564" lat="40.485403445828126" lon="-86.12334138476254" visible="true"><tag k="addr:housenumber" v="803" /><tag k="addr:street" v="East Superior Street" /></node><node id="-1565" lat="40.49069336435048" lon="-86.12160665611229" visible="true"><tag k="addr:housenumber" v="909" /><tag k="addr:street" v="East Jefferson Street" /></node><node id="-1566" lat="40.495408425427534" lon="-86.12619655193645" visible="true"><tag k="addr:housenumber" v="509" /><tag k="addr:street" v="East Elm Street" /></node><node id="-1567" lat="40.48535162306707" lon="-86.12215842924753" visible="true"><tag k="addr:housenumber" v="212" /><tag k="addr:street" v="South Locke Street" /></node><node id="-1568" lat="40.486239777497346" lon="-86.1237468621886" visible="true"><tag k="addr:housenumber" v="717" /><tag k="addr:street" v="East Sycamore Street" /></node><node id="-1569" lat="40.490824529779836" lon="-86.11787147695983" visible="true"><tag k="addr:housenumber" v="1135" /><tag k="addr:street" v="East Jefferson Street" /></node><node id="-1570" lat="40.4882225691928" lon="-86.11817353530148" visible="true"><tag k="addr:housenumber" v="1117" /><tag k="addr:street" v="East Mulberry Street" /></node><node id="-1573" lat="40.495129955554276" lon="-86.12477816513243" visible="true"><tag k="addr:housenumber" v="1019" /><tag k="addr:street" v="North Purdum Street" /></node><node id="-1574" lat="40.49423680664518" lon="-86.11874531835205" visible="true"><tag k="addr:housenumber" v="1022" /><tag k="addr:street" v="East Richmond Street" /></node><node id="-1578" lat="40.48780623824036" lon="-86.12588634008117" visible="true"><tag k="addr:housenumber" v="211" /><tag k="addr:street" v="Longview Drive" /></node><node id="-1579" lat="40.491165522967705" lon="-86.12341220857974" visible="true"><tag k="addr:housenumber" v="722" /><tag k="addr:street" v="East Jefferson Street" /></node><node id="-1581" lat="40.48920026052848" lon="-86.11805930734197" visible="true"><tag k="addr:housenumber" v="1129" /><tag k="addr:street" v="East Taylor Street" /></node><node id="-1582" lat="40.49040364940196" lon="-86.11898070340307" visible="true"><tag k="addr:housenumber" v="500" /><tag k="addr:street" v="North Delphos Street" /></node><node id="-1583" lat="40.494612262328104" lon="-86.11990088816917" visible="true"><tag k="addr:housenumber" v="955" /><tag k="addr:street" v="East Havens Street" /></node><node id="-1584" lat="40.48582013443156" lon="-86.11371399875746" visible="true"><tag k="addr:housenumber" v="201" /><tag k="addr:street" v="South Calumet Street" /></node><node id="-1585" lat="40.49464211153821" lon="-86.11497862886647" visible="true"><tag k="addr:housenumber" v="800" /><tag k="addr:street" v="North Ohio Avenue" /></node><node id="-1586" lat="40.48970225233521" lon="-86.1184148091443" visible="true"><tag k="addr:housenumber" v="1124" /><tag k="addr:street" v="East Taylor Street" /></node><node id="-1587" lat="40.49228119271255" lon="-86.119687258898" visible="true"><tag k="addr:housenumber" v="1016" /><tag k="addr:street" v="East Monroe Street" /></node><node id="-1588" lat="40.4912299326148" lon="-86.12403697732867" visible="true"><tag k="addr:housenumber" v="708" /><tag k="addr:street" v="East Jefferson Street" /></node><node id="-1590" lat="40.49544771685603" lon="-86.12158670297262" visible="true"><tag k="addr:housenumber" v="911" /><tag k="addr:street" v="East Elm Street" /></node><node id="-1591" lat="40.48819571488354" lon="-86.12076888578115" visible="true"><tag k="addr:housenumber" v="929" /><tag k="addr:street" v="East Mulberry Street" /></node><node id="-1592" lat="40.48920799007892" lon="-86.1169186614453" visible="true"><tag k="addr:housenumber" v="1209" /><tag k="addr:street" v="East Taylor Street" /></node><node id="-1593" lat="40.48699847196948" lon="-86.12029303487954" visible="true"><tag k="addr:housenumber" v="940" /><tag k="addr:street" v="East Sycamore Street" /></node><node id="-1594" lat="40.49225977581021" lon="-86.12287442110797" visible="true"><tag k="addr:housenumber" v="706" /><tag k="addr:street" v="North Jay Street" /></node><node id="-1595" lat="40.48539934557178" lon="-86.1117660582548" visible="true"><tag k="addr:housenumber" v="214" /><tag k="addr:street" v="South Cooper Street" /></node><node id="-1597" lat="40.490851287291584" lon="-86.12454170722638" visible="true"><tag k="addr:housenumber" v="627" /><tag k="addr:street" v="East Jefferson Street" /></node><node id="-1598" lat="40.49181264902168" lon="-86.11498408493117" visible="true"><tag k="addr:housenumber" v="1200" /><tag k="addr:street" v="East Monroe Street" /></node><node id="-1600" lat="40.48864273938131" lon="-86.12534397796631" visible="true"><tag k="addr:housenumber" v="604" /><tag k="addr:street" v="East Mulberry Street" /></node><node id="-1602" lat="40.484635283562326" lon="-86.11297088907557" visible="true"><tag k="addr:housenumber" v="310" /><tag k="addr:street" v="South Calumet Street" /></node><node id="-1604" lat="40.485167547595026" lon="-86.11296934561207" visible="true"><tag k="addr:housenumber" v="218" /><tag k="addr:street" v="South Calumet Street" /></node><node id="-1606" lat="40.49226310877099" lon="-86.1096268399101" visible="true"><tag k="addr:housenumber" v="1528" /><tag k="addr:street" v="East Jefferson Street" /></node><node id="-1607" lat="40.49467159650243" lon="-86.12653263306" visible="true"><tag k="addr:housenumber" v="1006" /><tag k="addr:street" v="North Apperson Way" /></node><node id="-1608" lat="40.48784853141199" lon="-86.12044220243085" visible="true"><tag k="addr:housenumber" v="934" /><tag k="addr:street" v="East Walnut Street" /></node><node id="-1609" lat="40.48804431520494" lon="-86.12450710021766" visible="true"><tag k="addr:housenumber" v="215" /><tag k="addr:street" v="North Purdum Street" /></node><node id="-1610" lat="40.48631944038836" lon="-86.12201414011783" visible="true"><tag k="addr:housenumber" v="909" /><tag k="addr:street" v="East Sycamore Street" /></node><node id="-1611" lat="40.49213277383157" lon="-86.12665739100916" visible="true"><tag k="addr:housenumber" v="502" /><tag k="addr:street" v="East Monroe Street" /></node><node id="-1612" lat="40.490894588944315" lon="-86.11315859443839" visible="true"><tag k="addr:housenumber" v="1401" /><tag k="addr:street" v="East Jefferson Street" /></node><node id="-1613" lat="40.49403330456807" lon="-86.12710777951874" visible="true"><tag k="addr:housenumber" v="915" /><tag k="addr:street" v="Apperson Way" /></node><node id="-1614" lat="40.49074900347772" lon="-86.10869035136442" visible="true"><tag k="addr:housenumber" v="1623" /><tag k="addr:street" v="East Jefferson Street" /></node><node id="-1615" lat="40.48818805292633" lon="-86.11368090635212" visible="true"><tag k="addr:housenumber" v="1423" /><tag k="addr:street" v="East Mulberry Street" /></node><node id="-1616" lat="40.484845053995706" lon="-86.11297039112762" visible="true"><tag k="addr:housenumber" v="302" /><tag k="addr:street" v="South Calumet Street" /></node><node id="-1617" lat="40.489178066430334" lon="-86.10997877027238" visible="true"><tag k="addr:housenumber" v="1620" /><tag k="addr:street" v="East Sycamore Street" /></node><node id="-1618" lat="40.48674232168733" lon="-86.12649743696007" visible="true"><tag k="addr:housenumber" v="504" /><tag k="addr:street" v="East Sycamore Street" /></node><node id="-1619" lat="40.488108232357014" lon="-86.12537212156133" visible="true"><tag k="addr:housenumber" v="605" /><tag k="addr:street" v="East Mulberry Street" /></node><node id="-1620" lat="40.48712651288673" lon="-86.11873699057554" visible="true"><tag k="addr:housenumber" v="1110" /><tag k="addr:street" v="East Sycamore Street" /></node><node id="-1621" lat="40.49256339728983" lon="-86.1207336078996" visible="true"><tag k="addr:housenumber" v="715" /><tag k="addr:street" v="North Waugh Street" /></node><node id="-1622" lat="40.487256924513105" lon="-86.12254917653564" visible="true"><tag k="addr:housenumber" v="815" /><tag k="addr:street" v="East Walnut Street" /></node><node id="-1623" lat="40.48541229869857" lon="-86.12310501716871" visible="true"><tag k="addr:housenumber" v="811" /><tag k="addr:street" v="East Superior Street" /></node><node id="-1624" lat="40.48967780354718" lon="-86.12285362856132" visible="true"><tag k="addr:housenumber" v="802" /><tag k="addr:street" v="East Taylor Street" /></node><node id="-1625" lat="40.48683169260349" lon="-86.1227299196831" visible="true"><tag k="addr:housenumber" v="808" /><tag k="addr:street" v="East Sycamore Street" /></node><node id="-1626" lat="40.48891374662099" lon="-86.1114030409064" visible="true"><tag k="addr:housenumber" v="1600" /><tag k="addr:street" v="East Sycamore Street" /></node><node id="-1627" lat="40.495096332815514" lon="-86.11857237019969" visible="true"><tag k="addr:housenumber" v="1022" /><tag k="addr:street" v="East Havens Street" /></node><node id="-1629" lat="40.48975792420625" lon="-86.11457000605672" visible="true"><tag k="addr:housenumber" v="1324" /><tag k="addr:street" v="East Taylor Street" /></node><node id="-1630" lat="40.490207633151016" lon="-86.1177375910784" visible="true"><tag k="addr:housenumber" v="520" /><tag k="addr:street" v="North Ohio Avenue" /></node><node id="-1632" lat="40.49483891998178" lon="-86.12477908013284" visible="true"><tag k="addr:housenumber" v="1011" /><tag k="addr:street" v="North Purdum Street" /></node><node id="-1633" lat="40.48764437906985" lon="-86.11631678801734" visible="true"><tag k="addr:housenumber" v="1228" /><tag k="addr:street" v="East Sycamore Street" /></node><node id="-1634" lat="40.49157417250479" lon="-86.11602563943813" visible="true"><tag k="addr:housenumber" v="1230" /><tag k="addr:street" v="East Jefferson Street" /></node><node id="-1635" lat="40.488246179450186" lon="-86.12224423674519" visible="true"><tag k="addr:housenumber" v="819" /><tag k="addr:street" v="East Mulberry Street" /></node><node id="-1636" lat="40.49263431577462" lon="-86.12478445495503" visible="true"><tag k="addr:housenumber" v="719" /><tag k="addr:street" v="North Purdum Street" /></node><node id="-1637" lat="40.48495523690675" lon="-86.1124260270523" visible="true"><tag k="addr:housenumber" v="301" /><tag k="addr:street" v="South Cooper Street" /></node><node id="-1639" lat="40.48923997050351" lon="-86.12031558737061" visible="true"><tag k="addr:housenumber" v="945" /><tag k="addr:street" v="East Taylor Street" /></node><node id="-1640" lat="40.49421671151971" lon="-86.12612048469155" visible="true"><tag k="addr:housenumber" v="515" /><tag k="addr:street" v="East Havens Street" /></node><node id="-1641" lat="40.485277621687146" lon="-86.1129688523955" visible="true"><tag k="addr:housenumber" v="216" /><tag k="addr:street" v="South Calumet Street" /></node><node id="-1642" lat="40.485172708157975" lon="-86.1124252008825" visible="true"><tag k="addr:housenumber" v="219" /><tag k="addr:street" v="South Cooper Street" /></node><node id="-1643" lat="40.491206788153725" lon="-86.12612808907855" visible="true"><tag k="addr:housenumber" v="516" /><tag k="addr:street" v="East Jefferson Street" /></node><node id="-1644" lat="40.492902425734805" lon="-86.11532848186373" visible="true"><tag k="addr:housenumber" v="713" /><tag k="addr:street" v="North Elizabeth Street" /></node><node id="-1645" lat="40.48423349822204" lon="-86.11358388525053" visible="true"><tag k="addr:housenumber" v="317" /><tag k="addr:street" v="South Calumet Street" /></node><node id="-1646" lat="40.492289223056254" lon="-86.12665702116342" visible="true"><tag k="addr:housenumber" v="710" /><tag k="addr:street" v="North Apperson Way" /></node><node id="-1647" lat="40.49236134825626" lon="-86.11346375089562" visible="true"><tag k="addr:housenumber" v="1426" /><tag k="addr:street" v="East Monroe Street" /></node><node id="-1648" lat="40.490591157878995" lon="-86.12389129078639" visible="true"><tag k="addr:housenumber" v="708" /><tag k="addr:street" v="East Jackson Street" /></node><node id="-1649" lat="40.489038540640415" lon="-86.10821494841977" visible="true"><tag k="addr:housenumber" v="1641" /><tag k="addr:street" v="East Sycamore Street" /></node><node id="-1650" lat="40.48548752276295" lon="-86.1142052113995" visible="true"><tag k="addr:housenumber" v="210" /><tag k="addr:street" v="South Elizabeth Street" /></node><node id="-1651" lat="40.49087388851616" lon="-86.10965714590868" visible="true"><tag k="addr:housenumber" v="1521" /><tag k="addr:street" v="East Jefferson Street" /></node><node id="-1652" lat="40.48507708217035" lon="-86.12489236474737" visible="true"><tag k="addr:housenumber" v="215" /><tag k="addr:street" v="South Purdum Street" /></node><node id="-1653" lat="40.48871528857968" lon="-86.12287842542361" visible="true"><tag k="addr:housenumber" v="800" /><tag k="addr:street" v="East Mulberry Street" /></node><node id="-1654" lat="40.48624836710268" lon="-86.12573160306373" visible="true"><tag k="addr:housenumber" v="525" /><tag k="addr:street" v="East Sycamore Street" /></node><node id="-1655" lat="40.49373360297582" lon="-86.12160674859551" visible="true"><tag k="addr:housenumber" v="911" /><tag k="addr:street" v="East Richmond Street" /></node><node id="-1656" lat="40.492275200430484" lon="-86.1087485981401" visible="true"><tag k="addr:housenumber" v="1616" /><tag k="addr:street" v="East Jefferson Street" /></node><node id="-1657" lat="40.488759636804296" lon="-86.11376731636781" visible="true"><tag k="addr:housenumber" v="1420" /><tag k="addr:street" v="East Mulberry Street" /></node><node id="-1658" lat="40.48738789934352" lon="-86.11964150268355" visible="true"><tag k="addr:housenumber" v="1015" /><tag k="addr:street" v="East Walnut Street" /></node><node id="-1659" lat="40.489228711908865" lon="-86.11559977791254" visible="true"><tag k="addr:housenumber" v="1245" /><tag k="addr:street" v="East Taylor Street" /></node><node id="-1661" lat="40.484923878902755" lon="-86.12382694807589" visible="true"><tag k="addr:housenumber" v="240" /><tag k="addr:street" v="South Purdum Street" /></node><node id="-1662" lat="40.48550725184143" lon="-86.12124400387019" visible="true"><tag k="addr:housenumber" v="921" /><tag k="addr:street" v="East Superior Street" /></node><node id="-1663" lat="40.4901294492494" lon="-86.12197127516038" visible="true"><tag k="addr:housenumber" v="903" /><tag k="addr:street" v="East Jackson Street" /></node><node id="-1664" lat="40.494963948802805" lon="-86.12653193237696" visible="true"><tag k="addr:housenumber" v="1012" /><tag k="addr:street" v="North Apperson Way" /></node><node id="-1665" lat="40.49212088447225" lon="-86.12478554738313" visible="true"><tag k="addr:housenumber" v="616" /><tag k="addr:street" v="East Monroe St &amp; 618" /></node><node id="-1667" lat="40.48594166360184" lon="-86.12163185830751" visible="true"><tag k="addr:housenumber" v="914" /><tag k="addr:street" v="East Superior Street" /></node><node id="-1668" lat="40.49270929490171" lon="-86.1188808253997" visible="true"><tag k="addr:housenumber" v="1109" /><tag k="addr:street" v="East Madison Street" /></node><node id="-1669" lat="40.490481039972636" lon="-86.1130119693171" visible="true"><tag k="addr:housenumber" v="426" /><tag k="addr:street" v="North Calumet Street" /></node><node id="-1670" lat="40.49294729332892" lon="-86.12355719506256" visible="true"><tag k="addr:housenumber" v="803" /><tag k="addr:street" v="North Jay St &amp; 805" /></node><node id="-1671" lat="40.490470161583225" lon="-86.11518730991064" visible="true"><tag k="addr:housenumber" v="1251" /><tag k="addr:street" v="East Jefferson Street" /></node><node id="-1672" lat="40.4913985205702" lon="-86.11403118390581" visible="true"><tag k="addr:housenumber" v="1314" /><tag k="addr:street" v="East Jefferson Street" /></node><node id="-1673" lat="40.495252421272646" lon="-86.11703300657963" visible="true"><tag k="addr:housenumber" v="1028" /><tag k="addr:street" v="North Ohio Avenue" /></node><node id="-1674" lat="40.48954285008069" lon="-86.12456772431932" visible="true"><tag k="addr:housenumber" v="626" /><tag k="addr:street" v="East Taylor Street" /></node><node id="-1675" lat="40.48928948218597" lon="-86.11300305021147" visible="true"><tag k="addr:housenumber" v="1505" /><tag k="addr:street" v="East Taylor Street" /></node><node id="-1676" lat="40.48538772322591" lon="-86.11296835936078" visible="true"><tag k="addr:housenumber" v="214" /><tag k="addr:street" v="South Calumet Street" /></node><node id="-1677" lat="40.49304314279537" lon="-86.1261234640727" visible="true"><tag k="addr:housenumber" v="514" /><tag k="addr:street" v="East Madison Street" /></node><node id="-1678" lat="40.48742071427437" lon="-86.11857240156014" visible="true"><tag k="addr:housenumber" v="1115" /><tag k="addr:street" v="East Walnut Street" /></node><node id="-1679" lat="40.489722590671974" lon="-86.1167724836281" visible="true"><tag k="addr:housenumber" v="1212" /><tag k="addr:street" v="East Taylor Street" /></node><node id="-1680" lat="40.49397561082845" lon="-86.12653435336382" visible="true"><tag k="addr:housenumber" v="912" /><tag k="addr:street" v="North Apperson Way" /></node><node id="-1681" lat="40.49226001265609" lon="-86.12157130509307" visible="true"><tag k="addr:housenumber" v="910" /><tag k="addr:street" v="East Monroe Street" /></node><node id="-1682" lat="40.48716716604731" lon="-86.12610843132911" visible="true"><tag k="addr:housenumber" v="517" /><tag k="addr:street" v="East Walnut Street" /></node><node id="-1683" lat="40.49424536301" lon="-86.11806965386911" visible="true"><tag k="addr:housenumber" v="1038" /><tag k="addr:street" v="East Richmond Street" /></node><node id="-1684" lat="40.49258301721231" lon="-86.12240196092233" visible="true"><tag k="addr:housenumber" v="711" /><tag k="addr:street" v="North Locke Street" /></node><node id="-1685" lat="40.48405319717704" lon="-86.11358374991556" visible="true"><tag k="addr:housenumber" v="1422" /><tag k="addr:street" v="East Carter Street" /></node><node id="-1686" lat="40.48462822227774" lon="-86.1137184036953" visible="true"><tag k="addr:housenumber" v="309" /><tag k="addr:street" v="South Calumet Street" /></node><node id="-1688" lat="40.48776569787194" lon="-86.12309935262952" visible="true"><tag k="addr:housenumber" v="800" /><tag k="addr:street" v="East Walnut Street" /></node><node id="-1689" lat="40.49054562323574" lon="-86.12405679746946" visible="true"><tag k="addr:housenumber" v="702" /><tag k="addr:street" v="East Jackson Street" /></node><node id="-1690" lat="40.484967788332206" lon="-86.1249037546564" visible="true"><tag k="addr:housenumber" v="217" /><tag k="addr:street" v="South Purdum Street" /></node><node id="-1691" lat="40.49123123876213" lon="-86.12391846557367" visible="true"><tag k="addr:housenumber" v="710" /><tag k="addr:street" v="East Jefferson Street" /></node><node id="-1692" lat="40.48625181912819" lon="-86.12549478262022" visible="true"><tag k="addr:housenumber" v="531" /><tag k="addr:street" v="East Sycamore Street" /></node><node id="-1693" lat="40.48742027734371" lon="-86.11783409978617" visible="true"><tag k="addr:housenumber" v="1137" /><tag k="addr:street" v="East Walnut Street" /></node><node id="-1695" lat="40.49154525945425" lon="-86.12240703863786" visible="true"><tag k="addr:housenumber" v="615" /><tag k="addr:street" v="North Locke Street" /></node><node id="-1697" lat="40.4857227755871" lon="-86.11593923050202" visible="true"><tag k="addr:housenumber" v="1101" /><tag k="addr:street" v="East Sycamore Road" /></node><node id="-1698" lat="40.488601386467174" lon="-86.12398296455926" visible="true"><tag k="addr:housenumber" v="302" /><tag k="addr:street" v="North Purdum Street" /></node><node id="-1699" lat="40.4923562921547" lon="-86.11383066471474" visible="true"><tag k="addr:housenumber" v="1418" /><tag k="addr:street" v="East Monroe Street" /></node><node id="-1700" lat="40.49121019370065" lon="-86.1270415818498" visible="true"><tag k="addr:housenumber" v="607" /><tag k="addr:street" v="North Apperson Way" /></node><node id="-1701" lat="40.48750203196545" lon="-86.1139402052077" visible="true"><tag k="addr:housenumber" v="1263" /><tag k="addr:street" v="East Sycamore Street" /></node><node id="-1703" lat="40.488717712547114" lon="-86.11535977181768" visible="true"><tag k="addr:housenumber" v="1244" /><tag k="addr:street" v="East Mulberry Street" /></node><node id="-1704" lat="40.493397345043114" lon="-86.12355582522493" visible="true"><tag k="addr:housenumber" v="815" /><tag k="addr:street" v="North Jay St &amp; 817 819 821" /></node><node id="-1706" lat="40.48718816267633" lon="-86.12452499102997" visible="true"><tag k="addr:housenumber" v="623" /><tag k="addr:street" v="East Walnut Street" /></node><node id="-1707" lat="40.49177289599922" lon="-86.12639247116361" visible="true"><tag k="addr:housenumber" v="509" /><tag k="addr:street" v="East Monroe Street" /></node><node id="-1709" lat="40.48785107001196" lon="-86.11950102273235" visible="true"><tag k="addr:housenumber" v="1018" /><tag k="addr:street" v="East Walnut Street" /></node><node id="-1710" lat="40.48959578999437" lon="-86.12413009159931" visible="true"><tag k="addr:housenumber" v="700" /><tag k="addr:street" v="East Taylor Street" /></node><node id="-1711" lat="40.49262980849876" lon="-86.12138703814989" visible="true"><tag k="addr:housenumber" v="915" /><tag k="addr:street" v="East Madison Street" /></node><node id="-1712" lat="40.48973199423161" lon="-86.11618655374785" visible="true"><tag k="addr:housenumber" v="1228" /><tag k="addr:street" v="East Taylor Street" /></node><node id="-1713" lat="40.492697238863606" lon="-86.11211461977679" visible="true"><tag k="addr:housenumber" v="1540" /><tag k="addr:street" v="East Monroe Street" /></node><node id="-1714" lat="40.488219113485286" lon="-86.12310364487008" visible="true"><tag k="addr:housenumber" v="801" /><tag k="addr:street" v="East Mulberry Street" /></node><node id="-1715" lat="40.488818438934985" lon="-86.12030633148952" visible="true"><tag k="addr:housenumber" v="938" /><tag k="addr:street" v="East Mulberry Street" /></node><node id="-1716" lat="40.49423470545275" lon="-86.12491382927877" visible="true"><tag k="addr:housenumber" v="615" /><tag k="addr:street" v="East Havens Street" /></node><node id="-1717" lat="40.49141409447328" lon="-86.11291029070235" visible="true"><tag k="addr:housenumber" v="1380" /><tag k="addr:street" v="East Jefferson Street" /></node><node id="-1718" lat="40.491293227026915" lon="-86.1208151638707" visible="true"><tag k="addr:housenumber" v="930" /><tag k="addr:street" v="East Jefferson Street" /></node><node id="-1719" lat="40.490685458683" lon="-86.11670249836929" visible="true"><tag k="addr:housenumber" v="1215" /><tag k="addr:street" v="East Jefferson Street" /></node><node id="-1720" lat="40.489715078733084" lon="-86.12020010686878" visible="true"><tag k="addr:housenumber" v="1002" /><tag k="addr:street" v="East Taylor Street" /></node><node id="-1721" lat="40.487722212239085" lon="-86.12499744711869" visible="true"><tag k="addr:housenumber" v="608" /><tag k="addr:street" v="East Walnut Street" /></node><node id="-1723" lat="40.49052014827349" lon="-86.1254527370231" visible="true"><tag k="addr:housenumber" v="602" /><tag k="addr:street" v="East Jackson Street" /></node><node id="-1724" lat="40.489585233008775" lon="-86.10833446066056" visible="true"><tag k="addr:housenumber" v="1640" /><tag k="addr:street" v="East Sycamore Street" /></node><node id="-1725" lat="40.48675557100705" lon="-86.12535985537372" visible="true"><tag k="addr:housenumber" v="602" /><tag k="addr:street" v="East Sycamore Street" /></node><node id="-1726" lat="40.49226427751954" lon="-86.12600678412298" visible="true"><tag k="addr:housenumber" v="709" /><tag k="addr:street" v="North Bell Street" /></node><node id="-1728" lat="40.48886859684101" lon="-86.1175616456428" visible="true"><tag k="addr:housenumber" v="1140" /><tag k="addr:street" v="East Mulberry St &amp; 1142" /></node><node id="-1729" lat="40.48924484114998" lon="-86.11457324607386" visible="true"><tag k="addr:housenumber" v="1325" /><tag k="addr:street" v="East Taylor Street" /></node><node id="-1731" lat="40.48874597289114" lon="-86.11848080455627" visible="true"><tag k="addr:housenumber" v="1112" /><tag k="addr:street" v="East Mulberry Street" /></node><node id="-1732" lat="40.48784514323299" lon="-86.12415944052482" visible="true"><tag k="addr:housenumber" v="208" /><tag k="addr:street" v="North Purdum Street" /></node><node id="-1733" lat="40.48547978993664" lon="-86.12225104110082" visible="true"><tag k="addr:housenumber" v="903" /><tag k="addr:street" v="East Superior Street" /></node><node id="-1734" lat="40.489706974152575" lon="-86.11798258192968" visible="true"><tag k="addr:housenumber" v="1132" /><tag k="addr:street" v="East Taylor Street" /></node><node id="-1735" lat="40.49363598728131" lon="-86.12410469325502" visible="true"><tag k="addr:housenumber" v="900" /><tag k="addr:street" v="North Purdum Street" /></node><node id="-1736" lat="40.495089834425386" lon="-86.11907920977667" visible="true"><tag k="addr:housenumber" v="1012" /><tag k="addr:street" v="East Havens Street" /></node><node id="-1737" lat="40.48916287492348" lon="-86.12447245650765" visible="true"><tag k="addr:housenumber" v="627" /><tag k="addr:street" v="East Taylor Street" /></node><node id="-1738" lat="40.48722034703701" lon="-86.1234497615916" visible="true"><tag k="addr:housenumber" v="721" /><tag k="addr:street" v="East Walnut Street" /></node><node id="-1739" lat="40.484950895751666" lon="-86.11180035821066" visible="true"><tag k="addr:housenumber" v="300" /><tag k="addr:street" v="South Cooper Street" /></node><node id="-1740" lat="40.48894064731759" lon="-86.12398296651504" visible="true"><tag k="addr:housenumber" v="312" /><tag k="addr:street" v="North Purdum Street" /></node><node id="-1741" lat="40.491450570189684" lon="-86.11777600672055" visible="true"><tag k="addr:housenumber" v="607" /><tag k="addr:street" v="North Ohio Avenue" /></node><node id="-1742" lat="40.487737616575814" lon="-86.11700615584047" visible="true"><tag k="addr:housenumber" v="1200" /><tag k="addr:street" v="East Walnut Street" /></node><node id="-1743" lat="40.49079378740317" lon="-86.12504901209607" visible="true"><tag k="addr:housenumber" v="613" /><tag k="addr:street" v="East Jefferson Street" /></node><node id="-1745" lat="40.488228811728376" lon="-86.1215350455286" visible="true"><tag k="addr:housenumber" v="915" /><tag k="addr:street" v="East Mulberry Street" /></node><node id="-1746" lat="40.48727319383562" lon="-86.12211610866176" visible="true"><tag k="addr:housenumber" v="827" /><tag k="addr:street" v="East Walnut St &amp; 1/2" /></node><node id="-1747" lat="40.488754056988014" lon="-86.11665847994783" visible="true"><tag k="addr:housenumber" v="1216" /><tag k="addr:street" v="East Mulberry Street" /></node><node id="-1748" lat="40.48586650945002" lon="-86.12524983368318" visible="true"><tag k="addr:housenumber" v="604" /><tag k="addr:street" v="East Superior Street" /></node><node id="-1749" lat="40.49311199690355" lon="-86.12478960919661" visible="true"><tag k="addr:housenumber" v="807" /><tag k="addr:street" v="North Purdum Street" /></node><node id="-1750" lat="40.490270636573726" lon="-86.11897892949553" visible="true"><tag k="addr:housenumber" v="428" /><tag k="addr:street" v="North Delphos Street" /></node><node id="-1752" lat="40.49122112914975" lon="-86.12482505350883" visible="true"><tag k="addr:housenumber" v="616" /><tag k="addr:street" v="East Jefferson Street" /></node><node id="-1753" lat="40.49506516688436" lon="-86.10855913997803" visible="true"><tag k="addr:housenumber" v="1725" /><tag k="addr:street" v="East Havens Street" /></node><node id="-1754" lat="40.495063104929706" lon="-86.1211659066716" visible="true"><tag k="addr:housenumber" v="918" /><tag k="addr:street" v="East Havens Street" /></node><node id="-1755" lat="40.48785008708339" lon="-86.11987433828453" visible="true"><tag k="addr:housenumber" v="1010" /><tag k="addr:street" v="East Walnut Street" /></node><node id="-1756" lat="40.48863127197654" lon="-86.12666841060411" visible="true"><tag k="addr:housenumber" v="420" /><tag k="addr:street" v="East Mulberry Street" /></node><node id="-1757" lat="40.49377555785595" lon="-86.12653483926147" visible="true"><tag k="addr:housenumber" v="906" /><tag k="addr:street" v="North Apperson Way" /></node><node id="-1758" lat="40.49269244066397" lon="-86.11910183093251" visible="true"><tag k="addr:housenumber" v="712" /><tag k="addr:street" v="North Delphos Street" /></node><node id="-1759" lat="40.49313451265752" lon="-86.12653639536497" visible="true"><tag k="addr:housenumber" v="818" /><tag k="addr:street" v="North Apperson Way" /></node><node id="-1760" lat="40.49056810553201" lon="-86.12717739308857" visible="true"><tag k="addr:housenumber" v="509" /><tag k="addr:street" v="North Apperson Way" /></node><node id="-1763" lat="40.491390553981816" lon="-86.11163662346837" visible="true"><tag k="addr:housenumber" v="1436" /><tag k="addr:street" v="East Jefferson Street" /></node><node id="-1765" lat="40.48722576066257" lon="-86.12310777526244" visible="true"><tag k="addr:housenumber" v="727" /><tag k="addr:street" v="East Walnut Street" /></node><node id="-1766" lat="40.4851602131767" lon="-86.12172071743674" visible="true"><tag k="addr:housenumber" v="912" /><tag k="addr:street" v="East Maple Street" /></node><node id="-1767" lat="40.48968891223255" lon="-86.12218764497513" visible="true"><tag k="addr:housenumber" v="822" /><tag k="addr:street" v="East Taylor Street" /></node><node id="-1768" lat="40.492471804692954" lon="-86.12531660349292" visible="true"><tag k="addr:housenumber" v="712" /><tag k="addr:street" v="North Bell St &amp; 714" /></node><node id="-1769" lat="40.486881224272004" lon="-86.12212104470433" visible="true"><tag k="addr:housenumber" v="824" /><tag k="addr:street" v="East Sycamore Street" /></node><node id="-1771" lat="40.48588788673294" lon="-86.12228425064365" visible="true"><tag k="addr:housenumber" v="900" /><tag k="addr:street" v="East Superior Street" /></node><node id="-1772" lat="40.49463991553499" lon="-86.11772991367297" visible="true"><tag k="addr:housenumber" v="1051" /><tag k="addr:street" v="East Havens Street" /></node><node id="-1773" lat="40.490091980412224" lon="-86.12445901413912" visible="true"><tag k="addr:housenumber" v="415" /><tag k="addr:street" v="North Purdum Street" /></node><node id="-1775" lat="40.48976497311111" lon="-86.11412855379261" visible="true"><tag k="addr:housenumber" v="1336" /><tag k="addr:street" v="East Taylor Street" /></node><node id="-1777" lat="40.490885329251576" lon="-86.113821278156" visible="true"><tag k="addr:housenumber" v="1317" /><tag k="addr:street" v="East Jefferson Street" /></node><node id="-1778" lat="40.49137801696065" lon="-86.11550347179619" visible="true"><tag k="addr:housenumber" v="1244" /><tag k="addr:street" v="East Jefferson Street" /></node><node id="-1779" lat="40.488073719337564" lon="-86.12669955008596" visible="true"><tag k="addr:housenumber" v="501" /><tag k="addr:street" v="East Mulberry Street" /></node><node id="-1781" lat="40.49211649344321" lon="-86.126150940455" visible="true"><tag k="addr:housenumber" v="512" /><tag k="addr:street" v="East Monroe Street" /></node><node id="-1783" lat="40.48923308008108" lon="-86.1208015096859" visible="true"><tag k="addr:housenumber" v="935" /><tag k="addr:street" v="East Taylor Street" /></node><node id="-1786" lat="40.48783751192893" lon="-86.11800894363546" visible="true"><tag k="addr:housenumber" v="1120" /><tag k="addr:street" v="East Walnut Street" /></node><node id="-1787" lat="40.485613073838216" lon="-86.11242304516685" visible="true"><tag k="addr:housenumber" v="207" /><tag k="addr:street" v="South Cooper Street" /></node><node id="-1789" lat="40.48782412131859" lon="-86.12155706616149" visible="true"><tag k="addr:housenumber" v="906" /><tag k="addr:street" v="East Walnut Street" /></node><node id="-1790" lat="40.49173298016499" lon="-86.11968907311629" visible="true"><tag k="addr:housenumber" v="1015" /><tag k="addr:street" v="East Monroe Street" /></node><node id="-1793" lat="40.48775084714471" lon="-86.12381832028773" visible="true"><tag k="addr:housenumber" v="708" /><tag k="addr:street" v="East Walnut Street" /></node><node id="-1794" lat="40.49058379247318" lon="-86.12448293938513" visible="true"><tag k="addr:housenumber" v="622" /><tag k="addr:street" v="East Jackson Street" /></node><node id="-1795" lat="40.487191174272255" lon="-86.1243467828452" visible="true"><tag k="addr:housenumber" v="629" /><tag k="addr:street" v="East Walnut Street" /></node><node id="-1797" lat="40.494226088462426" lon="-86.1195899030418" visible="true"><tag k="addr:housenumber" v="1000" /><tag k="addr:street" v="East Richmond Street" /></node><node id="-1798" lat="40.48822591905301" lon="-86.1245074535059" visible="true"><tag k="addr:housenumber" v="627" /><tag k="addr:street" v="East Mulberry Street" /></node><node id="-1800" lat="40.48716644216007" lon="-86.11781920588953" visible="true"><tag k="addr:housenumber" v="1138" /><tag k="addr:street" v="East Sycamore Street" /></node><node id="-1801" lat="40.49124308511644" lon="-86.12285175231362" visible="true"><tag k="addr:housenumber" v="804" /><tag k="addr:street" v="East Jefferson Street" /></node><node id="-1803" lat="40.48603882793948" lon="-86.11371296916529" visible="true"><tag k="addr:housenumber" v="123" /><tag k="addr:street" v="South Calumet Street" /></node><node id="-1804" lat="40.49459180741047" lon="-86.12150570385961" visible="true"><tag k="addr:housenumber" v="915" /><tag k="addr:street" v="East Havens Street" /></node><node id="-1805" lat="40.490095464541646" lon="-86.12267854398769" visible="true"><tag k="addr:housenumber" v="809" /><tag k="addr:street" v="East Jackson Street" /></node><node id="-1806" lat="40.488637633202735" lon="-86.1257036438363" visible="true"><tag k="addr:housenumber" v="528" /><tag k="addr:street" v="East Mulberry Street" /></node><node id="-1807" lat="40.483257204532805" lon="-86.11895370637188" visible="true"><tag k="addr:housenumber" v="990" /><tag k="addr:street" v="East Carter Street" /></node><node id="-1808" lat="40.49131633367969" lon="-86.1187301951658" visible="true"><tag k="addr:housenumber" v="1114" /><tag k="addr:street" v="East Jefferson Street" /></node><node id="-1809" lat="40.49008708447149" lon="-86.11301241517442" visible="true"><tag k="addr:housenumber" v="412" /><tag k="addr:street" v="North Calumet Street" /></node><node id="-1814" lat="40.490775848860785" lon="-86.1264139442327" visible="true"><tag k="addr:housenumber" v="509" /><tag k="addr:street" v="East Jefferson Street" /></node><node id="-1815" lat="40.489042697860526" lon="-86.11383399891263" visible="true"><tag k="addr:housenumber" v="315" /><tag k="addr:street" v="North Calumet Street" /></node><node id="-1816" lat="40.488710816901964" lon="-86.11583474346632" visible="true"><tag k="addr:housenumber" v="1232" /><tag k="addr:street" v="East Mulberry Street" /></node><node id="-1817" lat="40.49349070039524" lon="-86.12600374955427" visible="true"><tag k="addr:housenumber" v="821" /><tag k="addr:street" v="North Bell Street" /></node><node id="-1818" lat="40.48821551782765" lon="-86.11584938052405" visible="true"><tag k="addr:housenumber" v="1233" /><tag k="addr:street" v="East Mulberry Street" /></node><node id="-1820" lat="40.485443011274526" lon="-86.12372750839667" visible="true"><tag k="addr:housenumber" v="715" /><tag k="addr:street" v="East Superior Street" /></node><node id="-1821" lat="40.48742099969914" lon="-86.11910984160147" visible="true"><tag k="addr:housenumber" v="1101" /><tag k="addr:street" v="East Walnut Street" /></node><node id="-1822" lat="40.494976012647555" lon="-86.12410075975231" visible="true"><tag k="addr:housenumber" v="1016" /><tag k="addr:street" v="North Purdum Street" /></node><node id="-1824" lat="40.493935146861574" lon="-86.12531261675788" visible="true"><tag k="addr:housenumber" v="906" /><tag k="addr:street" v="North Bell Street" /></node><node id="-1825" lat="40.486792389271244" lon="-86.12440916340104" visible="true"><tag k="addr:housenumber" v="626" /><tag k="addr:street" v="East Sycamore Street" /></node><node id="-1826" lat="40.49425182951376" lon="-86.1175592967251" visible="true"><tag k="addr:housenumber" v="1054" /><tag k="addr:street" v="East Richmond Street" /></node><node id="-1827" lat="40.4891744195493" lon="-86.12220376029967" visible="true"><tag k="addr:housenumber" v="819" /><tag k="addr:street" v="East Taylor Street" /></node><node id="-1828" lat="40.489086080639574" lon="-86.12531825244672" visible="true"><tag k="addr:housenumber" v="603" /><tag k="addr:street" v="East Taylor Street" /></node><node id="-1829" lat="40.49228515632562" lon="-86.12409575383867" visible="true"><tag k="addr:housenumber" v="708" /><tag k="addr:street" v="North Purdum Street" /></node><node id="-1831" lat="40.48580461437691" lon="-86.1259437258854" visible="true"><tag k="addr:housenumber" v="518" /><tag k="addr:street" v="East Superior Street" /></node><node id="-1832" lat="40.48453573671485" lon="-86.1124271524298" visible="true"><tag k="addr:housenumber" v="313" /><tag k="addr:street" v="South Cooper Street" /></node><node id="-1834" lat="40.48494312491531" lon="-86.11371767089138" visible="true"><tag k="addr:housenumber" v="301" /><tag k="addr:street" v="South Calumet Street" /></node><node id="-1835" lat="40.48906851448882" lon="-86.12603667586909" visible="true"><tag k="addr:housenumber" v="519" /><tag k="addr:street" v="East Taylor Street" /></node><node id="-1836" lat="40.49173193115414" lon="-86.11218097105194" visible="true"><tag k="addr:housenumber" v="630" /><tag k="addr:street" v="North Cooper Street" /></node><node id="-1837" lat="40.48767578016474" lon="-86.1240138550384" visible="true"><tag k="addr:housenumber" v="704" /><tag k="addr:street" v="East Walnut Street" /></node><node id="-1838" lat="40.48841489307904" lon="-86.11253980311193" visible="true"><tag k="addr:housenumber" v="1506" /><tag k="addr:street" v="East Sycamore Street" /></node><node id="-1839" lat="40.4887617490048" lon="-86.12101386572915" visible="true"><tag k="addr:housenumber" v="926" /><tag k="addr:street" v="East Mulberry Street" /></node><node id="-1840" lat="40.491712124246696" lon="-86.12156050438512" visible="true"><tag k="addr:housenumber" v="911" /><tag k="addr:street" v="East Monroe Street" /></node><node id="-1841" lat="40.49382437952323" lon="-86.12478201381371" visible="true"><tag k="addr:housenumber" v="903" /><tag k="addr:street" v="North Purdum Street" /></node><node id="-1842" lat="40.49140133295213" lon="-86.11382934125557" visible="true"><tag k="addr:housenumber" v="1316" /><tag k="addr:street" v="East Jefferson Street" /></node><node id="-1843" lat="40.491235273881735" lon="-86.12353670301029" visible="true"><tag k="addr:housenumber" v="718" /><tag k="addr:street" v="East Jefferson Street" /></node><node id="-1844" lat="40.48713503102043" lon="-86.11852766741144" visible="true"><tag k="addr:housenumber" v="1114" /><tag k="addr:street" v="East Sycamore Street" /></node><node id="-1845" lat="40.49124133612855" lon="-86.12300970207977" visible="true"><tag k="addr:housenumber" v="800" /><tag k="addr:street" v="East Jefferson Street" /></node><node id="-1848" lat="40.49541123517699" lon="-86.12595928144832" visible="true"><tag k="addr:housenumber" v="1029" /><tag k="addr:street" v="North Bell Street" /></node><node id="-1849" lat="40.489714569353055" lon="-86.12108799047753" visible="true"><tag k="addr:housenumber" v="916" /><tag k="addr:street" v="East Taylor Street" /></node><node id="-1850" lat="40.494200726901134" lon="-86.12159174623154" visible="true"><tag k="addr:housenumber" v="912" /><tag k="addr:street" v="East Richmond Street" /></node><node id="-1851" lat="40.48553148616785" lon="-86.12095866700184" visible="true"><tag k="addr:housenumber" v="1001" /><tag k="addr:street" v="East Superior Street" /></node><node id="-1852" lat="40.49175631492241" lon="-86.11759672137033" visible="true"><tag k="addr:housenumber" v="1137" /><tag k="addr:street" v="East Monroe Street" /></node><node id="-1853" lat="40.48585497651749" lon="-86.1237645638687" visible="true"><tag k="addr:housenumber" v="718" /><tag k="addr:street" v="East Superior Street" /></node><node id="-1854" lat="40.48822268514545" lon="-86.1180560094098" visible="true"><tag k="addr:housenumber" v="1117" /><tag k="addr:street" v="East Mulberry Street" /></node><node id="-1856" lat="40.49423466355857" lon="-86.11891422093439" visible="true"><tag k="addr:housenumber" v="1018" /><tag k="addr:street" v="East Richmond Street" /></node><node id="-1857" lat="40.48713844444125" lon="-86.11370191154357" visible="true"><tag k="addr:housenumber" v="1269" /><tag k="addr:street" v="East Sycamore Street" /></node><node id="-1859" lat="40.48772477176175" lon="-86.12586477109708" visible="true"><tag k="addr:housenumber" v="207" /><tag k="addr:street" v="Longview Drive" /></node><node id="-1861" lat="40.492729704069006" lon="-86.1183928651255" visible="true"><tag k="addr:housenumber" v="1117" /><tag k="addr:street" v="East Madison Street" /></node><node id="-1862" lat="40.48925409523468" lon="-86.1139840473501" visible="true"><tag k="addr:housenumber" v="1337" /><tag k="addr:street" v="East Taylor St &amp; 1/2" /></node><node id="-1865" lat="40.49544990531991" lon="-86.12141772583846" visible="true"><tag k="addr:housenumber" v="913" /><tag k="addr:street" v="East Elm Street" /></node><node id="-1866" lat="40.48970065849611" lon="-86.11855920231649" visible="true"><tag k="addr:housenumber" v="1116" /><tag k="addr:street" v="East Taylor Street" /></node><node id="-1867" lat="40.49227917095408" lon="-86.11986687166254" visible="true"><tag k="addr:housenumber" v="1010" /><tag k="addr:street" v="East Monroe Street" /></node><node id="-1869" lat="40.48693974228515" lon="-86.12107955698113" visible="true"><tag k="addr:housenumber" v="920" /><tag k="addr:street" v="East Sycamore Street" /></node><node id="-1871" lat="40.48921029062548" lon="-86.11677200900539" visible="true"><tag k="addr:housenumber" v="1215" /><tag k="addr:street" v="East Taylor Street" /></node><node id="-1872" lat="40.48964629463461" lon="-86.1259854282585" visible="true"><tag k="addr:housenumber" v="520" /><tag k="addr:street" v="East Taylor Street" /></node><node id="-1873" lat="40.486357013232286" lon="-86.12263864499756" visible="true"><tag k="addr:housenumber" v="823" /><tag k="addr:street" v="East Sycamore Street" /></node><node id="-1875" lat="40.490853231718994" lon="-86.12438345414495" visible="true"><tag k="addr:housenumber" v="629" /><tag k="addr:street" v="East Jefferson Street" /></node><node id="-1876" lat="40.491815083195974" lon="-86.1148094196347" visible="true"><tag k="addr:housenumber" v="621" /><tag k="addr:street" v="North Elizabeth Street" /></node><node id="-1877" lat="40.48821091565438" lon="-86.12364304701046" visible="true"><tag k="addr:housenumber" v="713" /><tag k="addr:street" v="East Mulberry Street" /></node><node id="-1878" lat="40.48864020215451" lon="-86.12552330768727" visible="true"><tag k="addr:housenumber" v="530" /><tag k="addr:street" v="East Mulberry St &amp; 532" /></node><node id="-1879" lat="40.4887909153751" lon="-86.11423538761417" visible="true"><tag k="addr:housenumber" v="1332" /><tag k="addr:street" v="East Mulberry Street" /></node><node id="-1880" lat="40.48820011416186" lon="-86.11714117199845" visible="true"><tag k="addr:housenumber" v="1207" /><tag k="addr:street" v="East Mulberry Street" /></node><node id="-1883" lat="40.486269966417964" lon="-86.11241935599332" visible="true"><tag k="addr:housenumber" v="117" /><tag k="addr:street" v="South Cooper Street" /></node><node id="-1885" lat="40.48784802515" lon="-86.12063053184384" visible="true"><tag k="addr:housenumber" v="932" /><tag k="addr:street" v="East Walnut Street" /></node><node id="-1886" lat="40.49526252053893" lon="-86.12599920285632" visible="true"><tag k="addr:housenumber" v="1025" /><tag k="addr:street" v="North Bell Street" /></node><node id="-1888" lat="40.48554733620461" lon="-86.12078455802597" visible="true"><tag k="addr:housenumber" v="1005" /><tag k="addr:street" v="East Superior Street" /></node><node id="-1889" lat="40.49089899844032" lon="-86.11284129980197" visible="true"><tag k="addr:housenumber" v="1405" /><tag k="addr:street" v="East Jefferson Street" /></node><node id="-1890" lat="40.4922877133601" lon="-86.1191052967227" visible="true"><tag k="addr:housenumber" v="1102" /><tag k="addr:street" v="East Monroe Street" /></node><node id="-1891" lat="40.4908905515063" lon="-86.10836949806415" visible="true"><tag k="addr:housenumber" v="1625" /><tag k="addr:street" v="East Jefferson Street" /></node><node id="-1893" lat="40.4879503660184" lon="-86.11442570385421" visible="true"><tag k="addr:housenumber" v="1258" /><tag k="addr:street" v="East Sycamore Street" /></node><node id="-1895" lat="40.487624843375436" lon="-86.11066477007158" visible="true"><tag k="addr:housenumber" v="1720" /><tag k="addr:street" v="East Superior Street" /></node><node id="-1896" lat="40.48674697115694" lon="-86.12608410319959" visible="true"><tag k="addr:housenumber" v="512" /><tag k="addr:street" v="East Sycamore Street" /></node><node id="-1897" lat="40.48811065919053" lon="-86.12519288237814" visible="true"><tag k="addr:housenumber" v="609" /><tag k="addr:street" v="East Mulberry Street" /></node><node id="-1899" lat="40.48711209881734" lon="-86.11902191559724" visible="true"><tag k="addr:housenumber" v="100" /><tag k="addr:street" v="North Delphos Street" /></node><node id="-1900" lat="40.48726433342786" lon="-86.12236882275785" visible="true"><tag k="addr:housenumber" v="817" /><tag k="addr:street" v="East Walnut Street" /></node><node id="-1901" lat="40.484483998552705" lon="-86.12434451778542" visible="true"><tag k="addr:housenumber" v="234" /><tag k="addr:street" v="South Purdum Street" /></node><node id="-1902" lat="40.48959638266431" lon="-86.12302548792503" visible="true"><tag k="addr:housenumber" v="800" /><tag k="addr:street" v="East Taylor Street" /></node><node id="-1903" lat="40.49419641836788" lon="-86.12192956882814" visible="true"><tag k="addr:housenumber" v="900" /><tag k="addr:street" v="East Richmond Street" /></node><node id="-1904" lat="40.486824214864285" lon="-86.12291018191816" visible="true"><tag k="addr:housenumber" v="804" /><tag k="addr:street" v="East Sycamore Street" /></node><node id="-1905" lat="40.492117212216144" lon="-86.12710145976276" visible="true"><tag k="addr:housenumber" v="701" /><tag k="addr:street" v="North Apperson Way" /></node><node id="-1907" lat="40.48917431715902" lon="-86.12363078130785" visible="true"><tag k="addr:housenumber" v="715" /><tag k="addr:street" v="East Taylor Street" /></node><node id="-1908" lat="40.48576718070525" lon="-86.12260373592045" visible="true"><tag k="addr:housenumber" v="820" /><tag k="addr:street" v="East Superior Street" /></node><node id="-1909" lat="40.48971176012105" lon="-86.11754756874807" visible="true"><tag k="addr:housenumber" v="1144" /><tag k="addr:street" v="East Taylor Street" /></node><node id="-1910" lat="40.49472907993815" lon="-86.12477942972261" visible="true"><tag k="addr:housenumber" v="1007" /><tag k="addr:street" v="North Purdum Street" /></node><node id="-1912" lat="40.491570914614684" lon="-86.1162598737796" visible="true"><tag k="addr:housenumber" v="1228" /><tag k="addr:street" v="East Jefferson Street" /></node><node id="-1913" lat="40.48823375299957" lon="-86.1220124478828" visible="true"><tag k="addr:housenumber" v="821" /><tag k="addr:street" v="East Mulberry Street" /></node><node id="-1914" lat="40.49251694082328" lon="-86.12478480724653" visible="true"><tag k="addr:housenumber" v="715" /><tag k="addr:street" v="North Purdum Street" /></node><node id="-1917" lat="40.48920143841273" lon="-86.12017745048446" visible="true"><tag k="addr:housenumber" v="1003" /><tag k="addr:street" v="East Taylor Street" /></node><node id="-1918" lat="40.49421943845902" lon="-86.12588328974303" visible="true"><tag k="addr:housenumber" v="921" /><tag k="addr:street" v="North Bell Street" /></node><node id="-1919" lat="40.48969745782829" lon="-86.11885117036203" visible="true"><tag k="addr:housenumber" v="1110" /><tag k="addr:street" v="East Taylor Street" /></node><node id="-1920" lat="40.49356098608762" lon="-86.12478275728009" visible="true"><tag k="addr:housenumber" v="819" /><tag k="addr:street" v="North Purdum Street" /></node><node id="-1921" lat="40.48783867995974" lon="-86.1187460145534" visible="true"><tag k="addr:housenumber" v="1110" /><tag k="addr:street" v="East Walnut Street" /></node><node id="-1922" lat="40.4950876631798" lon="-86.11924816823016" visible="true"><tag k="addr:housenumber" v="1008" /><tag k="addr:street" v="East Havens Street" /></node><node id="-1923" lat="40.49167133222963" lon="-86.12398154941158" visible="true"><tag k="addr:housenumber" v="709" /><tag k="addr:street" v="East Monroe Street" /></node><node id="-1924" lat="40.492938727136575" lon="-86.11488644868359" visible="true"><tag k="addr:housenumber" v="723" /><tag k="addr:street" v="North Elizabeth Street" /></node><node id="-1925" lat="40.4877938669265" lon="-86.12239877411197" visible="true"><tag k="addr:housenumber" v="818" /><tag k="addr:street" v="East Walnut Street" /></node><node id="-1926" lat="40.49130370132672" lon="-86.11987055589518" visible="true"><tag k="addr:housenumber" v="1010" /><tag k="addr:street" v="East Jefferson Street" /></node><node id="-1927" lat="40.48451881979205" lon="-86.1142085197923" visible="true"><tag k="addr:housenumber" v="312" /><tag k="addr:street" v="South Elizabeth Street" /></node><node id="-1928" lat="40.49235882714369" lon="-86.1136472258355" visible="true"><tag k="addr:housenumber" v="1422" /><tag k="addr:street" v="East Monroe Street" /></node><node id="-1929" lat="40.490857203426934" lon="-86.12405625241684" visible="true"><tag k="addr:housenumber" v="707" /><tag k="addr:street" v="East Jefferson Street" /></node><node id="-1931" lat="40.485597953676795" lon="-86.11420472257453" visible="true"><tag k="addr:housenumber" v="206" /><tag k="addr:street" v="South Elizabeth Street" /></node><node id="-1932" lat="40.490877719405546" lon="-86.1093701559427" visible="true"><tag k="addr:housenumber" v="1531" /><tag k="addr:street" v="East Jefferson Street" /></node><node id="-1934" lat="40.48578849562248" lon="-86.12437798678658" visible="true"><tag k="addr:housenumber" v="624" /><tag k="addr:street" v="East Superior Street" /></node><node id="-1935" lat="40.49228352012339" lon="-86.10815551883331" visible="true"><tag k="addr:housenumber" v="1624" /><tag k="addr:street" v="East Jefferson Street" /></node><node id="-1936" lat="40.49373566071289" lon="-86.12144309619138" visible="true"><tag k="addr:housenumber" v="913" /><tag k="addr:street" v="East Richmond Street" /></node><node id="-1937" lat="40.48739438540632" lon="-86.11945382590619" visible="true"><tag k="addr:housenumber" v="1017" /><tag k="addr:street" v="East Walnut &amp; 1019 Street" /></node><node id="-1938" lat="40.49460150801605" lon="-86.12074553105045" visible="true"><tag k="addr:housenumber" v="933" /><tag k="addr:street" v="East Havens Street" /></node><node id="-1940" lat="40.48525525933578" lon="-86.12125970374248" visible="true"><tag k="addr:housenumber" v="217" /><tag k="addr:street" v="South Faulkner Street" /></node><node id="-1941" lat="40.489230995661934" lon="-86.11545348479052" visible="true"><tag k="addr:housenumber" v="1301" /><tag k="addr:street" v="East Taylor Street" /></node><node id="-1942" lat="40.48718451042752" lon="-86.12473664753907" visible="true"><tag k="addr:housenumber" v="619" /><tag k="addr:street" v="East Walnut St &amp; 621" /></node><node id="-1944" lat="40.48592504298178" lon="-86.12184797121972" visible="true"><tag k="addr:housenumber" v="912" /><tag k="addr:street" v="East Superior Street" /></node><node id="-1945" lat="40.49174539602957" lon="-86.1185755431051" visible="true"><tag k="addr:housenumber" v="1117" /><tag k="addr:street" v="East Monroe Street" /></node><node id="-1946" lat="40.493783520356295" lon="-86.11764603105881" visible="true"><tag k="addr:housenumber" v="1051" /><tag k="addr:street" v="East Richmond Street" /></node><node id="-1947" lat="40.49296185007442" lon="-86.12410669495326" visible="true"><tag k="addr:housenumber" v="800" /><tag k="addr:street" v="North Purdum Street" /></node><node id="-1948" lat="40.490340420088835" lon="-86.11364321731517" visible="true"><tag k="addr:housenumber" v="423" /><tag k="addr:street" v="North Calumet Street" /></node><node id="-1949" lat="40.492595444313494" lon="-86.1168358667581" visible="true"><tag k="addr:housenumber" v="740" /><tag k="addr:street" v="North Ohio Avenue" /></node><node id="-1950" lat="40.49138797002993" lon="-86.11187992215847" visible="true"><tag k="addr:housenumber" v="1426" /><tag k="addr:street" v="East Jefferson Street" /></node><node id="-1951" lat="40.48929292593674" lon="-86.11276517568501" visible="true"><tag k="addr:housenumber" v="1511" /><tag k="addr:street" v="East Taylor Street" /></node><node id="-1953" lat="40.48742059263049" lon="-86.11843851756898" visible="true"><tag k="addr:housenumber" v="1115" /><tag k="addr:street" v="East Walnut Street" /></node><node id="-1954" lat="40.48972022163738" lon="-86.1169191007727" visible="true"><tag k="addr:housenumber" v="1208" /><tag k="addr:street" v="East Taylor Street" /></node><node id="-1955" lat="40.494030166979336" lon="-86.12653422245548" visible="true"><tag k="addr:housenumber" v="912" /><tag k="addr:street" v="North Apperson Way" /></node><node id="-1956" lat="40.48717764340733" lon="-86.12570985669814" visible="true"><tag k="addr:housenumber" v="525" /><tag k="addr:street" v="East Walnut Street" /></node><node id="-1958" lat="40.49424322084041" lon="-86.11823857448061" visible="true"><tag k="addr:housenumber" v="1034" /><tag k="addr:street" v="East Richmond Street" /></node><node id="-1959" lat="40.48918742189731" lon="-86.12163454222296" visible="true"><tag k="addr:housenumber" v="907" /><tag k="addr:street" v="East Taylor Street" /></node><node id="-1960" lat="40.49222695996398" lon="-86.12231432309666" visible="true"><tag k="addr:housenumber" v="818" /><tag k="addr:street" v="East Monroe Street" /></node><node id="-1961" lat="40.484141621244184" lon="-86.11377292850318" visible="true"><tag k="addr:housenumber" v="1420" /><tag k="addr:street" v="East Carter Street" /></node><node id="-1963" lat="40.49318189731614" lon="-86.11446968194461" visible="true"><tag k="addr:housenumber" v="1402" /><tag k="addr:street" v="East Madison Street" /></node><node id="-1964" lat="40.48586668539273" lon="-86.12310083325767" visible="true"><tag k="addr:housenumber" v="810" /><tag k="addr:street" v="East Superior Street" /></node><node id="-1965" lat="40.48865238550064" lon="-86.1246627873789" visible="true"><tag k="addr:housenumber" v="622" /><tag k="addr:street" v="East Mulberry Street" /></node><node id="-1966" lat="40.4892354985028" lon="-86.1198182275603" visible="true"><tag k="addr:housenumber" v="1011" /><tag k="addr:street" v="East Taylor Street" /></node><node id="-1967" lat="40.48485854931715" lon="-86.12491516287798" visible="true"><tag k="addr:housenumber" v="221" /><tag k="addr:street" v="South Purdum Street" /></node></osm>